street_name,postal_code,zone_name,latitude,longitude,full_address
Siaka Stevens Street,1102,Siaka Stevens,8.4770,-13.2260,"Siaka Stevens Street, Siaka Stevens, 1102"
Lamina Sankoh Street,1102,Siaka Stevens,8.4768,-13.2258,"Lamina Sankoh Street, Siaka Stevens, 1102"
Ecowas Street,1102,Siaka Stevens,8.4772,-13.2262,"Ecowas Street, Siaka Stevens, 1102"
Bank of Sierra Leone Road,1102,Siaka Stevens,8.4774,-13.2264,"Bank of Sierra Leone Road, Siaka Stevens, 1102"
Cotton Tree Junction,1102,Siaka Stevens,8.4766,-13.2256,"Cotton Tree Junction, Siaka Stevens, 1102"
Independence Avenue,1102,Siaka Stevens,8.4776,-13.2266,"Independence Avenue, Siaka Stevens, 1102"
Tower Hill,1101,Tower Hill,8.4820,-13.2285,"Tower Hill, Tower Hill, 1101"
Tower Hill Road,1101,Tower Hill,8.4822,-13.2287,"Tower Hill Road, Tower Hill, 1101"
State House Road,1101,Tower Hill,8.4825,-13.2290,"State House Road, Tower Hill, 1101"
Law Court Building Road,1101,Tower Hill,8.4815,-13.2282,"Law Court Building Road, Tower Hill, 1101"
Parliament Building Road,1101,Tower Hill,8.4828,-13.2292,"Parliament Building Road, Tower Hill, 1101"
Supreme Court Road,1101,Tower Hill,8.4818,-13.2284,"Supreme Court Road, Tower Hill, 1101"
Government House Road,1101,Tower Hill,8.4830,-13.2295,"Government House Road, Tower Hill, 1101"
Attorney General Road,1101,Tower Hill,8.4812,-13.2280,"Attorney General Road, Tower Hill, 1101"
Ministry of Finance Road,1101,Tower Hill,8.4832,-13.2298,"Ministry of Finance Road, Tower Hill, 1101"
Treasury Building Road,1101,Tower Hill,8.4835,-13.2300,"Treasury Building Road, Tower Hill, 1101"
Central Freetown Road,1100,Central Freetown,8.4787,-13.2283,"Central Freetown Road, Central Freetown, 1100"
CBD Main Road,1100,Central Freetown,8.4790,-13.2285,"CBD Main Road, Central Freetown, 1100"
City Centre Road,1100,Central Freetown,8.4785,-13.2280,"City Centre Road, Central Freetown, 1100"
Downtown Freetown Road,1100,Central Freetown,8.4792,-13.2288,"Downtown Freetown Road, Central Freetown, 1100"
Commercial District Road,1100,Central Freetown,8.4795,-13.2290,"Commercial District Road, Central Freetown, 1100"
Central Market Road,1100,Central Freetown,8.4782,-13.2278,"Central Market Road, Central Freetown, 1100"
Rawdon Street,1152,Rawdon Street,8.4785,-13.2295,"Rawdon Street, Rawdon Street, 1152"
Rawdon Street Junction,1152,Rawdon Street,8.4787,-13.2297,"Rawdon Street Junction, Rawdon Street, 1152"
Rawdon Street Upper,1152,Rawdon Street,8.4790,-13.2300,"Rawdon Street Upper, Rawdon Street, 1152"
Rawdon Street Lower,1152,Rawdon Street,8.4782,-13.2292,"Rawdon Street Lower, Rawdon Street, 1152"
Lightfoot Boston Street,1153,Lightfoot Boston,8.4792,-13.2270,"Lightfoot Boston Street, Lightfoot Boston, 1153"
Lightfoot Boston Junction,1153,Lightfoot Boston,8.4794,-13.2272,"Lightfoot Boston Junction, Lightfoot Boston, 1153"
Lightfoot Boston Upper,1153,Lightfoot Boston,8.4796,-13.2274,"Lightfoot Boston Upper, Lightfoot Boston, 1153"
Lightfoot Boston Lower,1153,Lightfoot Boston,8.4790,-13.2268,"Lightfoot Boston Lower, Lightfoot Boston, 1153"
Gloucester Street,1154,Gloucester Street,8.4780,-13.2255,"Gloucester Street, Gloucester Street, 1154"
Gloucester Street Junction,1154,Gloucester Street,8.4782,-13.2257,"Gloucester Street Junction, Gloucester Street, 1154"
Gloucester Street Upper,1154,Gloucester Street,8.4784,-13.2259,"Gloucester Street Upper, Gloucester Street, 1154"
Gloucester Street Lower,1154,Gloucester Street,8.4778,-13.2253,"Gloucester Street Lower, Gloucester Street, 1154"
Howe Street,1155,Howe Street,8.4775,-13.2240,"Howe Street, Howe Street, 1155"
Howe Street Junction,1155,Howe Street,8.4777,-13.2242,"Howe Street Junction, Howe Street, 1155"
Howe Street Upper,1155,Howe Street,8.4779,-13.2244,"Howe Street Upper, Howe Street, 1155"
Howe Street Lower,1155,Howe Street,8.4773,-13.2238,"Howe Street Lower, Howe Street, 1155"
Westmoreland Street,1156,Westmoreland,8.4775,-13.2278,"Westmoreland Street, Westmoreland, 1156"
Westmoreland Junction,1156,Westmoreland,8.4777,-13.2280,"Westmoreland Junction, Westmoreland, 1156"
Westmoreland Upper,1156,Westmoreland,8.4779,-13.2282,"Westmoreland Upper, Westmoreland, 1156"
Westmoreland Lower,1156,Westmoreland,8.4773,-13.2276,"Westmoreland Lower, Westmoreland, 1156"
George Street,1157,George Street,8.4782,-13.2272,"George Street, George Street, 1157"
George Street Junction,1157,George Street,8.4784,-13.2274,"George Street Junction, George Street, 1157"
George Street Upper,1157,George Street,8.4786,-13.2276,"George Street Upper, George Street, 1157"
George Street Lower,1157,George Street,8.4780,-13.2270,"George Street Lower, George Street, 1157"
Charlotte Street,1158,Charlotte Street,8.4765,-13.2275,"Charlotte Street, Charlotte Street, 1158"
Charlotte Street Junction,1158,Charlotte Street,8.4767,-13.2277,"Charlotte Street Junction, Charlotte Street, 1158"
Charlotte Street Upper,1158,Charlotte Street,8.4769,-13.2279,"Charlotte Street Upper, Charlotte Street, 1158"
Charlotte Street Lower,1158,Charlotte Street,8.4763,-13.2273,"Charlotte Street Lower, Charlotte Street, 1158"
Garrison Street,1159,Garrison Street,8.4760,-13.2265,"Garrison Street, Garrison Street, 1159"
Garrison Street Junction,1159,Garrison Street,8.4762,-13.2267,"Garrison Street Junction, Garrison Street, 1159"
Garrison Street Upper,1159,Garrison Street,8.4764,-13.2269,"Garrison Street Upper, Garrison Street, 1159"
Garrison Street Lower,1159,Garrison Street,8.4758,-13.2263,"Garrison Street Lower, Garrison Street, 1159"
Wallace Johnson Street,1160,Wallace Johnson,8.4790,-13.2310,"Wallace Johnson Street, Wallace Johnson, 1160"
Wallace Johnson Junction,1160,Wallace Johnson,8.4792,-13.2312,"Wallace Johnson Junction, Wallace Johnson, 1160"
Wallace Johnson Upper,1160,Wallace Johnson,8.4794,-13.2314,"Wallace Johnson Upper, Wallace Johnson, 1160"
Wallace Johnson Lower,1160,Wallace Johnson,8.4788,-13.2308,"Wallace Johnson Lower, Wallace Johnson, 1160"
Walpole Street,1161,Walpole Street,8.4782,-13.2305,"Walpole Street, Walpole Street, 1161"
Walpole Street Junction,1161,Walpole Street,8.4784,-13.2307,"Walpole Street Junction, Walpole Street, 1161"
Walpole Street Upper,1161,Walpole Street,8.4786,-13.2309,"Walpole Street Upper, Walpole Street, 1161"
Walpole Street Lower,1161,Walpole Street,8.4780,-13.2303,"Walpole Street Lower, Walpole Street, 1161"
Sanders Street,1162,Sanders Street,8.4778,-13.2268,"Sanders Street, Sanders Street, 1162"
Sanders Street Junction,1162,Sanders Street,8.4780,-13.2270,"Sanders Street Junction, Sanders Street, 1162"
Sanders Street Upper,1162,Sanders Street,8.4782,-13.2272,"Sanders Street Upper, Sanders Street, 1162"
Sanders Street Lower,1162,Sanders Street,8.4776,-13.2266,"Sanders Street Lower, Sanders Street, 1162"
Liverpool Street,1163,Liverpool Street,8.4772,-13.2262,"Liverpool Street, Liverpool Street, 1163"
Liverpool Street Junction,1163,Liverpool Street,8.4774,-13.2264,"Liverpool Street Junction, Liverpool Street, 1163"
Liverpool Street Upper,1163,Liverpool Street,8.4776,-13.2266,"Liverpool Street Upper, Liverpool Street, 1163"
Liverpool Street Lower,1163,Liverpool Street,8.4770,-13.2260,"Liverpool Street Lower, Liverpool Street, 1163"
Oxford Street,1164,Oxford Street,8.4748,-13.2242,"Oxford Street, Oxford Street, 1164"
Oxford Street Junction,1164,Oxford Street,8.4750,-13.2244,"Oxford Street Junction, Oxford Street, 1164"
Oxford Street Upper,1164,Oxford Street,8.4752,-13.2246,"Oxford Street Upper, Oxford Street, 1164"
Oxford Street Lower,1164,Oxford Street,8.4746,-13.2240,"Oxford Street Lower, Oxford Street, 1164"
Pademba Road,1165,Pademba Road,8.4810,-13.2300,"Pademba Road, Pademba Road, 1165"
Pademba Road Junction,1165,Pademba Road,8.4812,-13.2302,"Pademba Road Junction, Pademba Road, 1165"
Pademba Road Upper,1165,Pademba Road,8.4815,-13.2305,"Pademba Road Upper, Pademba Road, 1165"
Pademba Road Lower,1165,Pademba Road,8.4808,-13.2298,"Pademba Road Lower, Pademba Road, 1165"
Pademba Road Prison Junction,1165,Pademba Road,8.4818,-13.2308,"Pademba Road Prison Junction, Pademba Road, 1165"
Campbell Street,1185,Campbell Street,8.4760,-13.2285,"Campbell Street, Campbell Street, 1185"
Campbell Street Junction,1185,Campbell Street,8.4762,-13.2287,"Campbell Street Junction, Campbell Street, 1185"
Campbell Street Upper,1185,Campbell Street,8.4764,-13.2289,"Campbell Street Upper, Campbell Street, 1185"
Campbell Street Lower,1185,Campbell Street,8.4758,-13.2283,"Campbell Street Lower, Campbell Street, 1185"
Bath Street,1186,Bath Street,8.4765,-13.2282,"Bath Street, Bath Street, 1186"
Bath Street Junction,1186,Bath Street,8.4767,-13.2284,"Bath Street Junction, Bath Street, 1186"
Bath Street Upper,1186,Bath Street,8.4769,-13.2286,"Bath Street Upper, Bath Street, 1186"
Bath Street Lower,1186,Bath Street,8.4763,-13.2280,"Bath Street Lower, Bath Street, 1186"
Martin Street,1187,Martin Street,8.4770,-13.2280,"Martin Street, Martin Street, 1187"
Martin Street Junction,1187,Martin Street,8.4772,-13.2282,"Martin Street Junction, Martin Street, 1187"
Martin Street Upper,1187,Martin Street,8.4774,-13.2284,"Martin Street Upper, Martin Street, 1187"
Martin Street Lower,1187,Martin Street,8.4768,-13.2278,"Martin Street Lower, Martin Street, 1187"
Percival Street,1188,Percival Street,8.4763,-13.2252,"Percival Street, Percival Street, 1188"
Percival Street Junction,1188,Percival Street,8.4765,-13.2254,"Percival Street Junction, Percival Street, 1188"
Percival Street Upper,1188,Percival Street,8.4767,-13.2256,"Percival Street Upper, Percival Street, 1188"
Percival Street Lower,1188,Percival Street,8.4761,-13.2250,"Percival Street Lower, Percival Street, 1188"
Soldier Street,1189,Soldier Street,8.4748,-13.2242,"Soldier Street, Soldier Street, 1189"
Soldier Street Junction,1189,Soldier Street,8.4750,-13.2244,"Soldier Street Junction, Soldier Street, 1189"
Soldier Street Upper,1189,Soldier Street,8.4752,-13.2246,"Soldier Street Upper, Soldier Street, 1189"
Soldier Street Lower,1189,Soldier Street,8.4746,-13.2240,"Soldier Street Lower, Soldier Street, 1189"
Daniel Street,1190,Daniel Street,8.4758,-13.2248,"Daniel Street, Daniel Street, 1190"
Daniel Street Junction,1190,Daniel Street,8.4760,-13.2250,"Daniel Street Junction, Daniel Street, 1190"
Daniel Street Upper,1190,Daniel Street,8.4762,-13.2252,"Daniel Street Upper, Daniel Street, 1190"
Daniel Street Lower,1190,Daniel Street,8.4756,-13.2246,"Daniel Street Lower, Daniel Street, 1190"
Trelawney Street,1191,Trelawney Street,8.4752,-13.2245,"Trelawney Street, Trelawney Street, 1191"
Trelawney Street Junction,1191,Trelawney Street,8.4754,-13.2247,"Trelawney Street Junction, Trelawney Street, 1191"
Trelawney Street Upper,1191,Trelawney Street,8.4756,-13.2249,"Trelawney Street Upper, Trelawney Street, 1191"
Trelawney Street Lower,1191,Trelawney Street,8.4750,-13.2243,"Trelawney Street Lower, Trelawney Street, 1191"
Short Street,1192,Short Street,8.4762,-13.2270,"Short Street, Short Street, 1192"
Short Street Junction,1192,Short Street,8.4764,-13.2272,"Short Street Junction, Short Street, 1192"
Short Street Upper,1192,Short Street,8.4766,-13.2274,"Short Street Upper, Short Street, 1192"
Short Street Lower,1192,Short Street,8.4760,-13.2268,"Short Street Lower, Short Street, 1192"
Back Street,1193,Back Street,8.4775,-13.2015,"Back Street, Back Street, 1193"
Back Street Junction,1193,Back Street,8.4777,-13.2017,"Back Street Junction, Back Street, 1193"
Back Street Upper,1193,Back Street,8.4779,-13.2019,"Back Street Upper, Back Street, 1193"
Back Street Lower,1193,Back Street,8.4773,-13.2013,"Back Street Lower, Back Street, 1193"
Kroo Bay Road,1132,Kroo Bay,8.4755,-13.2290,"Kroo Bay Road, Kroo Bay, 1132"
Kroo Bay Junction,1132,Kroo Bay,8.4757,-13.2292,"Kroo Bay Junction, Kroo Bay, 1132"
Kroo Bay Bridge,1132,Kroo Bay,8.4759,-13.2294,"Kroo Bay Bridge, Kroo Bay, 1132"
Kroo Bay Market,1132,Kroo Bay,8.4753,-13.2288,"Kroo Bay Market, Kroo Bay, 1132"
Mabella Road,1137,Mabella,8.4750,-13.2280,"Mabella Road, Mabella, 1137"
Mabella Junction,1137,Mabella,8.4752,-13.2282,"Mabella Junction, Mabella, 1137"
Mabella Market Road,1137,Mabella,8.4754,-13.2284,"Mabella Market Road, Mabella, 1137"
Mabella Wharf Road,1137,Mabella,8.4748,-13.2278,"Mabella Wharf Road, Mabella, 1137"
Sawpit Road,1138,Sawpit,8.4745,-13.2275,"Sawpit Road, Sawpit, 1138"
Sawpit Junction,1138,Sawpit,8.4747,-13.2277,"Sawpit Junction, Sawpit, 1138"
Sawpit Market Road,1138,Sawpit,8.4749,-13.2279,"Sawpit Market Road, Sawpit, 1138"
Susan's Bay Road,1133,Susan's Bay,8.4795,-13.2020,"Susan's Bay Road, Susan's Bay, 1133"
Susan's Bay Junction,1133,Susan's Bay,8.4797,-13.2022,"Susan's Bay Junction, Susan's Bay, 1133"
Susan's Bay Wharf Road,1133,Susan's Bay,8.4799,-13.2024,"Susan's Bay Wharf Road, Susan's Bay, 1133"
Susan's Bay Market Road,1133,Susan's Bay,8.4793,-13.2018,"Susan's Bay Market Road, Susan's Bay, 1133"
Magazine Cut Road,1134,Magazine Cut,8.4785,-13.2000,"Magazine Cut Road, Magazine Cut, 1134"
Magazine Cut Junction,1134,Magazine Cut,8.4787,-13.2002,"Magazine Cut Junction, Magazine Cut, 1134"
Magazine Wharf Road,1134,Magazine Cut,8.4789,-13.2004,"Magazine Wharf Road, Magazine Cut, 1134"
Thunder Hill Road,1135,Thunder Hill,8.4782,-13.2005,"Thunder Hill Road, Thunder Hill, 1135"
Thunder Hill Junction,1135,Thunder Hill,8.4784,-13.2007,"Thunder Hill Junction, Thunder Hill, 1135"
Thunder Hill Wharf Road,1135,Thunder Hill,8.4786,-13.2009,"Thunder Hill Wharf Road, Thunder Hill, 1135"
Big Wharf Road,1136,Big Wharf,8.4790,-13.2015,"Big Wharf Road, Big Wharf, 1136"
Big Wharf Junction,1136,Big Wharf,8.4792,-13.2017,"Big Wharf Junction, Big Wharf, 1136"
Big Wharf Main Road,1136,Big Wharf,8.4794,-13.2019,"Big Wharf Main Road, Big Wharf, 1136"
Big Wharf Market Road,1136,Big Wharf,8.4788,-13.2013,"Big Wharf Market Road, Big Wharf, 1136"
Kingtom Road,1130,Kingtom,8.4800,-13.2560,"Kingtom Road, Kingtom, 1130"
Kingtom Cemetery Road,1130,Kingtom,8.4805,-13.2565,"Kingtom Cemetery Road, Kingtom, 1130"
Kingtom Junction,1130,Kingtom,8.4798,-13.2558,"Kingtom Junction, Kingtom, 1130"
Kingtom Wharf Road,1130,Kingtom,8.4810,-13.2570,"Kingtom Wharf Road, Kingtom, 1130"
Kingtom Industrial Road,1130,Kingtom,8.4815,-13.2575,"Kingtom Industrial Road, Kingtom, 1130"
Kingtom Police Road,1130,Kingtom,8.4803,-13.2562,"Kingtom Police Road, Kingtom, 1130"
Ferry Road,1180,Ferry Road,8.4802,-13.2558,"Ferry Road, Ferry Road, 1180"
Ferry Road Junction,1180,Ferry Road,8.4804,-13.2560,"Ferry Road Junction, Ferry Road, 1180"
Ferry Terminal Road,1180,Ferry Road,8.4806,-13.2562,"Ferry Terminal Road, Ferry Road, 1180"
Government Wharf Road,1181,Government Wharf,8.4808,-13.2560,"Government Wharf Road, Government Wharf, 1181"
Government Wharf Junction,1181,Government Wharf,8.4810,-13.2562,"Government Wharf Junction, Government Wharf, 1181"
Government Wharf Main Road,1181,Government Wharf,8.4812,-13.2564,"Government Wharf Main Road, Government Wharf, 1181"
Customs Wharf Road,1181,Government Wharf,8.4814,-13.2566,"Customs Wharf Road, Government Wharf, 1181"
Queen Elizabeth Quay Road,1182,Queen Elizabeth Quay,8.4810,-13.2565,"Queen Elizabeth Quay Road, Queen Elizabeth Quay, 1182"
QE Quay Junction,1182,Queen Elizabeth Quay,8.4812,-13.2567,"QE Quay Junction, Queen Elizabeth Quay, 1182"
QE Quay Terminal Road,1182,Queen Elizabeth Quay,8.4814,-13.2569,"QE Quay Terminal Road, Queen Elizabeth Quay, 1182"
Freetown Port Road,1182,Queen Elizabeth Quay,8.4816,-13.2571,"Freetown Port Road, Queen Elizabeth Quay, 1182"
Fisher Street,1183,Fisher Street,8.4805,-13.2555,"Fisher Street, Fisher Street, 1183"
Fisher Street Junction,1183,Fisher Street,8.4807,-13.2557,"Fisher Street Junction, Fisher Street, 1183"
Fisher Lane,1183,Fisher Street,8.4809,-13.2559,"Fisher Lane, Fisher Street, 1183"
Regent Street,1100,Central Freetown,8.4788,-13.2286,"Regent Street, Central Freetown, 1100"
Kissy Street,1100,Central Freetown,8.4784,-13.2282,"Kissy Street, Central Freetown, 1100"
Kissy Road Junction,1100,Central Freetown,8.4786,-13.2284,"Kissy Road Junction, Central Freetown, 1100"
Waterloo Street,1100,Central Freetown,8.4780,-13.2278,"Waterloo Street, Central Freetown, 1100"
Wellington Street,1100,Central Freetown,8.4778,-13.2276,"Wellington Street, Central Freetown, 1100"
Freetown Central Market,1100,Central Freetown,8.4775,-13.2273,"Freetown Central Market, Central Freetown, 1100"
Big Market Road,1100,Central Freetown,8.4773,-13.2271,"Big Market Road, Central Freetown, 1100"
PZ Road,1100,Central Freetown,8.4771,-13.2269,"PZ Road, Central Freetown, 1100"
Abacha Street,1100,Central Freetown,8.4769,-13.2267,"Abacha Street, Central Freetown, 1100"
Sani Abacha Street,1100,Central Freetown,8.4767,-13.2265,"Sani Abacha Street, Central Freetown, 1100"
Goderich Street,1100,Central Freetown,8.4765,-13.2263,"Goderich Street, Central Freetown, 1100"
Lumley Street,1100,Central Freetown,8.4763,-13.2261,"Lumley Street, Central Freetown, 1100"
Savage Street,1194,Savage Square,8.4885,-13.2048,"Savage Street, Savage Square, 1194"
Savage Square Road,1194,Savage Square,8.4887,-13.2050,"Savage Square Road, Savage Square, 1194"
Savage Square Junction,1194,Savage Square,8.4889,-13.2052,"Savage Square Junction, Savage Square, 1194"
Savage Lane,1194,Savage Square,8.4883,-13.2046,"Savage Lane, Savage Square, 1194"
Pultney Street,1195,Pultney Street,8.4888,-13.2055,"Pultney Street, Pultney Street, 1195"
Pultney Street Junction,1195,Pultney Street,8.4890,-13.2057,"Pultney Street Junction, Pultney Street, 1195"
Pultney Lane,1195,Pultney Street,8.4892,-13.2059,"Pultney Lane, Pultney Street, 1195"
