{
  "type": "FeatureCollection",
  "name": "Freetown_Streets_v3",
  "crs": {
    "type": "name",
    "properties": {
      "name": "urn:ogc:def:crs:OGC:1.3:CRS84"
    }
  },
  "features": [
    {"type": "Feature", "properties": {"street_name": "Lumley Beach Road", "postal_code": "1117", "zone_name": "Lumley"}, "geometry": {"type": "Point", "coordinates": [-13.2860, 8.4316]}},
    {"type": "Feature", "properties": {"street_name": "Malama Road", "postal_code": "1117", "zone_name": "Lumley"}, "geometry": {"type": "Point", "coordinates": [-13.2865, 8.4320]}},
    {"type": "Feature", "properties": {"street_name": "Malama Junction", "postal_code": "1117", "zone_name": "Lumley"}, "geometry": {"type": "Point", "coordinates": [-13.2862, 8.4318]}},
    {"type": "Feature", "properties": {"street_name": "Regent Road", "postal_code": "1117", "zone_name": "Lumley"}, "geometry": {"type": "Point", "coordinates": [-13.2855, 8.4310]}},
    {"type": "Feature", "properties": {"street_name": "Lumley Main Road", "postal_code": "1117", "zone_name": "Lumley"}, "geometry": {"type": "Point", "coordinates": [-13.2870, 8.4325]}},
    {"type": "Feature", "properties": {"street_name": "Lumley Back Road", "postal_code": "1117", "zone_name": "Lumley"}, "geometry": {"type": "Point", "coordinates": [-13.2858, 8.4312]}},
    {"type": "Feature", "properties": {"street_name": "Lumley Police Road", "postal_code": "1117", "zone_name": "Lumley"}, "geometry": {"type": "Point", "coordinates": [-13.2875, 8.4330]}},
    {"type": "Feature", "properties": {"street_name": "Family Kingdom Road", "postal_code": "1117", "zone_name": "Lumley"}, "geometry": {"type": "Point", "coordinates": [-13.2880, 8.4335]}},
    {"type": "Feature", "properties": {"street_name": "Lumley Market Road", "postal_code": "1117", "zone_name": "Lumley"}, "geometry": {"type": "Point", "coordinates": [-13.2868, 8.4322]}},
    {"type": "Feature", "properties": {"street_name": "Atlantic Road", "postal_code": "1117", "zone_name": "Lumley"}, "geometry": {"type": "Point", "coordinates": [-13.2885, 8.4340]}},
    {"type": "Feature", "properties": {"street_name": "Beach Bar Road", "postal_code": "1117", "zone_name": "Lumley"}, "geometry": {"type": "Point", "coordinates": [-13.2888, 8.4345]}},
    {"type": "Feature", "properties": {"street_name": "Lumley School Road", "postal_code": "1117", "zone_name": "Lumley"}, "geometry": {"type": "Point", "coordinates": [-13.2852, 8.4315]}},
    {"type": "Feature", "properties": {"street_name": "Country Lodge Road", "postal_code": "1117", "zone_name": "Lumley"}, "geometry": {"type": "Point", "coordinates": [-13.2890, 8.4350]}},
    {"type": "Feature", "properties": {"street_name": "Lumley Hotel Road", "postal_code": "1117", "zone_name": "Lumley"}, "geometry": {"type": "Point", "coordinates": [-13.2895, 8.4355]}},
    {"type": "Feature", "properties": {"street_name": "Kona Lodge Road", "postal_code": "1117", "zone_name": "Lumley"}, "geometry": {"type": "Point", "coordinates": [-13.2898, 8.4360]}},
    {"type": "Feature", "properties": {"street_name": "Aberdeen Main Road", "postal_code": "1118", "zone_name": "Aberdeen"}, "geometry": {"type": "Point", "coordinates": [-13.2934, 8.4184]}},
    {"type": "Feature", "properties": {"street_name": "Aberdeen Village Road", "postal_code": "1118", "zone_name": "Aberdeen"}, "geometry": {"type": "Point", "coordinates": [-13.2930, 8.4180]}},
    {"type": "Feature", "properties": {"street_name": "Aberdeen Creek Road", "postal_code": "1118", "zone_name": "Aberdeen"}, "geometry": {"type": "Point", "coordinates": [-13.2925, 8.4175]}},
    {"type": "Feature", "properties": {"street_name": "Aberdeen Beach Road", "postal_code": "1118", "zone_name": "Aberdeen"}, "geometry": {"type": "Point", "coordinates": [-13.2940, 8.4190]}},
    {"type": "Feature", "properties": {"street_name": "Aberdeen Bridge Road", "postal_code": "1118", "zone_name": "Aberdeen"}, "geometry": {"type": "Point", "coordinates": [-13.2938, 8.4188]}},
    {"type": "Feature", "properties": {"street_name": "Aberdeen Market Road", "postal_code": "1118", "zone_name": "Aberdeen"}, "geometry": {"type": "Point", "coordinates": [-13.2932, 8.4182]}},
    {"type": "Feature", "properties": {"street_name": "Sir Samuel Lewis Road", "postal_code": "1118", "zone_name": "Aberdeen"}, "geometry": {"type": "Point", "coordinates": [-13.2945, 8.4195]}},
    {"type": "Feature", "properties": {"street_name": "Tokeh Road", "postal_code": "1118", "zone_name": "Aberdeen"}, "geometry": {"type": "Point", "coordinates": [-13.2920, 8.4170]}},
    {"type": "Feature", "properties": {"street_name": "Murray Town Road", "postal_code": "1118", "zone_name": "Aberdeen"}, "geometry": {"type": "Point", "coordinates": [-13.2915, 8.4165]}},
    {"type": "Feature", "properties": {"street_name": "Radisson Road", "postal_code": "1118", "zone_name": "Aberdeen"}, "geometry": {"type": "Point", "coordinates": [-13.2950, 8.4200]}},
    {"type": "Feature", "properties": {"street_name": "Aberdeen Roundabout", "postal_code": "1118", "zone_name": "Aberdeen"}, "geometry": {"type": "Point", "coordinates": [-13.2928, 8.4178]}},
    {"type": "Feature", "properties": {"street_name": "Congo Cross", "postal_code": "1106", "zone_name": "Congo Town"}, "geometry": {"type": "Point", "coordinates": [-13.2120, 8.4910]}},
    {"type": "Feature", "properties": {"street_name": "Congo Town Main Road", "postal_code": "1106", "zone_name": "Congo Town"}, "geometry": {"type": "Point", "coordinates": [-13.2122, 8.4912]}},
    {"type": "Feature", "properties": {"street_name": "Congo Town Market Road", "postal_code": "1106", "zone_name": "Congo Town"}, "geometry": {"type": "Point", "coordinates": [-13.2125, 8.4915]}},
    {"type": "Feature", "properties": {"street_name": "Congo Town Back Road", "postal_code": "1106", "zone_name": "Congo Town"}, "geometry": {"type": "Point", "coordinates": [-13.2118, 8.4908]}},
    {"type": "Feature", "properties": {"street_name": "Old Railway Line Road", "postal_code": "1106", "zone_name": "Congo Town"}, "geometry": {"type": "Point", "coordinates": [-13.2128, 8.4918]}},
    {"type": "Feature", "properties": {"street_name": "Kissy Main Road", "postal_code": "1123", "zone_name": "Kissy"}, "geometry": {"type": "Point", "coordinates": [-13.1830, 8.4870]}},
    {"type": "Feature", "properties": {"street_name": "Kissy Bye Pass Road", "postal_code": "1123", "zone_name": "Kissy"}, "geometry": {"type": "Point", "coordinates": [-13.1835, 8.4875]}},
    {"type": "Feature", "properties": {"street_name": "Kissy Mental Hospital Road", "postal_code": "1123", "zone_name": "Kissy"}, "geometry": {"type": "Point", "coordinates": [-13.1825, 8.4865]}},
    {"type": "Feature", "properties": {"street_name": "Blackhall Road", "postal_code": "1123", "zone_name": "Kissy"}, "geometry": {"type": "Point", "coordinates": [-13.1840, 8.4880]}},
    {"type": "Feature", "properties": {"street_name": "Kissy Shell Road", "postal_code": "1123", "zone_name": "Kissy"}, "geometry": {"type": "Point", "coordinates": [-13.1838, 8.4878]}},
    {"type": "Feature", "properties": {"street_name": "Kissy Market Road", "postal_code": "1123", "zone_name": "Kissy"}, "geometry": {"type": "Point", "coordinates": [-13.1828, 8.4868]}},
    {"type": "Feature", "properties": {"street_name": "Kissy Police Road", "postal_code": "1123", "zone_name": "Kissy"}, "geometry": {"type": "Point", "coordinates": [-13.1832, 8.4872]}},
    {"type": "Feature", "properties": {"street_name": "Kissy Terminal Road", "postal_code": "1123", "zone_name": "Kissy"}, "geometry": {"type": "Point", "coordinates": [-13.1842, 8.4882]}},
    {"type": "Feature", "properties": {"street_name": "Wellington Main Road", "postal_code": "1126", "zone_name": "Wellington"}, "geometry": {"type": "Point", "coordinates": [-13.1625, 8.4870]}},
    {"type": "Feature", "properties": {"street_name": "Wellington Industrial Estate Road", "postal_code": "1126", "zone_name": "Wellington"}, "geometry": {"type": "Point", "coordinates": [-13.1630, 8.4875]}},
    {"type": "Feature", "properties": {"street_name": "Wellington Market Road", "postal_code": "1126", "zone_name": "Wellington"}, "geometry": {"type": "Point", "coordinates": [-13.1622, 8.4868]}},
    {"type": "Feature", "properties": {"street_name": "Wellington PMB Road", "postal_code": "1126", "zone_name": "Wellington"}, "geometry": {"type": "Point", "coordinates": [-13.1635, 8.4880]}},
    {"type": "Feature", "properties": {"street_name": "Wellington Junction", "postal_code": "1126", "zone_name": "Wellington"}, "geometry": {"type": "Point", "coordinates": [-13.1620, 8.4865]}},
    {"type": "Feature", "properties": {"street_name": "Wellington Back Road", "postal_code": "1126", "zone_name": "Wellington"}, "geometry": {"type": "Point", "coordinates": [-13.1628, 8.4872]}},
    {"type": "Feature", "properties": {"street_name": "Waterloo Main Road", "postal_code": "1000", "zone_name": "Waterloo Central"}, "geometry": {"type": "Point", "coordinates": [-13.0600, 8.3330]}},
    {"type": "Feature", "properties": {"street_name": "Waterloo Old Road", "postal_code": "1000", "zone_name": "Waterloo Central"}, "geometry": {"type": "Point", "coordinates": [-13.0610, 8.3320]}},
    {"type": "Feature", "properties": {"street_name": "Waterloo Market Road", "postal_code": "1000", "zone_name": "Waterloo Central"}, "geometry": {"type": "Point", "coordinates": [-13.0605, 8.3335]}},
    {"type": "Feature", "properties": {"street_name": "Waterloo Police Road", "postal_code": "1000", "zone_name": "Waterloo Central"}, "geometry": {"type": "Point", "coordinates": [-13.0608, 8.3340]}},
    {"type": "Feature", "properties": {"street_name": "Waterloo Hospital Road", "postal_code": "1000", "zone_name": "Waterloo Central"}, "geometry": {"type": "Point", "coordinates": [-13.0612, 8.3345]}},
    {"type": "Feature", "properties": {"street_name": "Masiaka Highway", "postal_code": "1000", "zone_name": "Waterloo Central"}, "geometry": {"type": "Point", "coordinates": [-13.0615, 8.3350]}},
    {"type": "Feature", "properties": {"street_name": "Tombo Highway", "postal_code": "1000", "zone_name": "Waterloo Central"}, "geometry": {"type": "Point", "coordinates": [-13.0590, 8.3315]}},
    {"type": "Feature", "properties": {"street_name": "Jui Main Road", "postal_code": "1003", "zone_name": "Jui"}, "geometry": {"type": "Point", "coordinates": [-13.0700, 8.3400]}},
    {"type": "Feature", "properties": {"street_name": "Jui Junction Road", "postal_code": "1003", "zone_name": "Jui"}, "geometry": {"type": "Point", "coordinates": [-13.0705, 8.3405]}},
    {"type": "Feature", "properties": {"street_name": "Jui Police Road", "postal_code": "1003", "zone_name": "Jui"}, "geometry": {"type": "Point", "coordinates": [-13.0710, 8.3410]}},
    {"type": "Feature", "properties": {"street_name": "Jui Military Road", "postal_code": "1003", "zone_name": "Jui"}, "geometry": {"type": "Point", "coordinates": [-13.0715, 8.3415]}},
    {"type": "Feature", "properties": {"street_name": "Jui Hospital Road", "postal_code": "1003", "zone_name": "Jui"}, "geometry": {"type": "Point", "coordinates": [-13.0720, 8.3420]}},
    {"type": "Feature", "properties": {"street_name": "Jui Mosque Road", "postal_code": "1003", "zone_name": "Jui"}, "geometry": {"type": "Point", "coordinates": [-13.0690, 8.3390]}},
    {"type": "Feature", "properties": {"street_name": "Jui Market Road", "postal_code": "1003", "zone_name": "Jui"}, "geometry": {"type": "Point", "coordinates": [-13.0685, 8.3385]}},
    {"type": "Feature", "properties": {"street_name": "Jui Barracks Road", "postal_code": "1003", "zone_name": "Jui"}, "geometry": {"type": "Point", "coordinates": [-13.0725, 8.3425]}},
    {"type": "Feature", "properties": {"street_name": "Wilkinson Road", "postal_code": "1109", "zone_name": "Brookfields"}, "geometry": {"type": "Point", "coordinates": [-13.2460, 8.4600]}},
    {"type": "Feature", "properties": {"street_name": "Main Motor Road", "postal_code": "1109", "zone_name": "Brookfields"}, "geometry": {"type": "Point", "coordinates": [-13.2450, 8.4580]}},
    {"type": "Feature", "properties": {"street_name": "Brookfields Junction", "postal_code": "1109", "zone_name": "Brookfields"}, "geometry": {"type": "Point", "coordinates": [-13.2465, 8.4605]}},
    {"type": "Feature", "properties": {"street_name": "Brookfields Hotel Road", "postal_code": "1109", "zone_name": "Brookfields"}, "geometry": {"type": "Point", "coordinates": [-13.2468, 8.4608]}},
    {"type": "Feature", "properties": {"street_name": "Brookfields Market Road", "postal_code": "1109", "zone_name": "Brookfields"}, "geometry": {"type": "Point", "coordinates": [-13.2455, 8.4595]}},
    {"type": "Feature", "properties": {"street_name": "Imatt Road", "postal_code": "1112", "zone_name": "Imatt"}, "geometry": {"type": "Point", "coordinates": [-13.2390, 8.4700]}},
    {"type": "Feature", "properties": {"street_name": "Imatt Junction", "postal_code": "1112", "zone_name": "Imatt"}, "geometry": {"type": "Point", "coordinates": [-13.2395, 8.4705]}},
    {"type": "Feature", "properties": {"street_name": "Imatt Back Road", "postal_code": "1112", "zone_name": "Imatt"}, "geometry": {"type": "Point", "coordinates": [-13.2385, 8.4695]}},
    {"type": "Feature", "properties": {"street_name": "Imatt Housing Road", "postal_code": "1112", "zone_name": "Imatt"}, "geometry": {"type": "Point", "coordinates": [-13.2400, 8.4710]}},
    {"type": "Feature", "properties": {"street_name": "Imatt Police Post Road", "postal_code": "1112", "zone_name": "Imatt"}, "geometry": {"type": "Point", "coordinates": [-13.2405, 8.4715]}},
    {"type": "Feature", "properties": {"street_name": "Imatt Market Road", "postal_code": "1112", "zone_name": "Imatt"}, "geometry": {"type": "Point", "coordinates": [-13.2398, 8.4708]}},
    {"type": "Feature", "properties": {"street_name": "Dwarzak Farm Road", "postal_code": "1113", "zone_name": "Dwarzak"}, "geometry": {"type": "Point", "coordinates": [-13.2380, 8.4690]}},
    {"type": "Feature", "properties": {"street_name": "Dwarzak Junction", "postal_code": "1113", "zone_name": "Dwarzak"}, "geometry": {"type": "Point", "coordinates": [-13.2375, 8.4695]}},
    {"type": "Feature", "properties": {"street_name": "Dwarzak Main Road", "postal_code": "1113", "zone_name": "Dwarzak"}, "geometry": {"type": "Point", "coordinates": [-13.2378, 8.4698]}},
    {"type": "Feature", "properties": {"street_name": "Dwarzak School Road", "postal_code": "1113", "zone_name": "Dwarzak"}, "geometry": {"type": "Point", "coordinates": [-13.2372, 8.4692]}},
    {"type": "Feature", "properties": {"street_name": "New England Main Road", "postal_code": "1110", "zone_name": "New England"}, "geometry": {"type": "Point", "coordinates": [-13.2410, 8.4680]}},
    {"type": "Feature", "properties": {"street_name": "New England Ville", "postal_code": "1110", "zone_name": "New England"}, "geometry": {"type": "Point", "coordinates": [-13.2420, 8.4685]}},
    {"type": "Feature", "properties": {"street_name": "Jomo Kenyatta Road", "postal_code": "1110", "zone_name": "New England"}, "geometry": {"type": "Point", "coordinates": [-13.2400, 8.4675]}},
    {"type": "Feature", "properties": {"street_name": "New England Hill Road", "postal_code": "1110", "zone_name": "New England"}, "geometry": {"type": "Point", "coordinates": [-13.2415, 8.4688]}},
    {"type": "Feature", "properties": {"street_name": "Hill Station Road", "postal_code": "1114", "zone_name": "Hill Station"}, "geometry": {"type": "Point", "coordinates": [-13.2644, 8.4536]}},
    {"type": "Feature", "properties": {"street_name": "Hill Station Main Road", "postal_code": "1114", "zone_name": "Hill Station"}, "geometry": {"type": "Point", "coordinates": [-13.2648, 8.4540]}},
    {"type": "Feature", "properties": {"street_name": "Hill Station Hotel Road", "postal_code": "1114", "zone_name": "Hill Station"}, "geometry": {"type": "Point", "coordinates": [-13.2652, 8.4544]}},
    {"type": "Feature", "properties": {"street_name": "Ross Road", "postal_code": "1166", "zone_name": "Ross Road"}, "geometry": {"type": "Point", "coordinates": [-13.2648, 8.4535]}},
    {"type": "Feature", "properties": {"street_name": "Ginger Hall Road", "postal_code": "1167", "zone_name": "Ginger Hall"}, "geometry": {"type": "Point", "coordinates": [-13.2650, 8.4545]}},
    {"type": "Feature", "properties": {"street_name": "Wilberforce Road", "postal_code": "1115", "zone_name": "Wilberforce"}, "geometry": {"type": "Point", "coordinates": [-13.2706, 8.4416]}},
    {"type": "Feature", "properties": {"street_name": "Wilberforce Main Road", "postal_code": "1115", "zone_name": "Wilberforce"}, "geometry": {"type": "Point", "coordinates": [-13.2710, 8.4420]}},
    {"type": "Feature", "properties": {"street_name": "Wilberforce Military Hospital Road", "postal_code": "1115", "zone_name": "Wilberforce"}, "geometry": {"type": "Point", "coordinates": [-13.2712, 8.4422]}},
    {"type": "Feature", "properties": {"street_name": "Signal Hill Road", "postal_code": "1116", "zone_name": "Signal Hill"}, "geometry": {"type": "Point", "coordinates": [-13.2780, 8.4370]}},
    {"type": "Feature", "properties": {"street_name": "Murray Town Road", "postal_code": "1108", "zone_name": "Murray Town"}, "geometry": {"type": "Point", "coordinates": [-13.2660, 8.4680]}},
    {"type": "Feature", "properties": {"street_name": "Murray Town Beach Road", "postal_code": "1108", "zone_name": "Murray Town"}, "geometry": {"type": "Point", "coordinates": [-13.2664, 8.4684]}},
    {"type": "Feature", "properties": {"street_name": "Siaka Stevens Street", "postal_code": "1102", "zone_name": "Siaka Stevens"}, "geometry": {"type": "Point", "coordinates": [-13.2260, 8.4770]}},
    {"type": "Feature", "properties": {"street_name": "Tower Hill Road", "postal_code": "1101", "zone_name": "Tower Hill"}, "geometry": {"type": "Point", "coordinates": [-13.2285, 8.4820]}},
    {"type": "Feature", "properties": {"street_name": "State House Road", "postal_code": "1101", "zone_name": "Tower Hill"}, "geometry": {"type": "Point", "coordinates": [-13.2290, 8.4825]}},
    {"type": "Feature", "properties": {"street_name": "Pademba Road", "postal_code": "1165", "zone_name": "Pademba Road"}, "geometry": {"type": "Point", "coordinates": [-13.2300, 8.4810]}},
    {"type": "Feature", "properties": {"street_name": "Fourah Bay Road", "postal_code": "1105", "zone_name": "Fourah Bay"}, "geometry": {"type": "Point", "coordinates": [-13.2050, 8.4890]}},
    {"type": "Feature", "properties": {"street_name": "Mount Aureol Road", "postal_code": "1146", "zone_name": "Mount Aureol"}, "geometry": {"type": "Point", "coordinates": [-13.2065, 8.4905]}},
    {"type": "Feature", "properties": {"street_name": "Regent Village Road", "postal_code": "1008", "zone_name": "Regent"}, "geometry": {"type": "Point", "coordinates": [-13.2116, 8.4140]}},
    {"type": "Feature", "properties": {"street_name": "Regent Main Road", "postal_code": "1008", "zone_name": "Regent"}, "geometry": {"type": "Point", "coordinates": [-13.2120, 8.4145]}},
    {"type": "Feature", "properties": {"street_name": "Regent Waterfall Road", "postal_code": "1008", "zone_name": "Regent"}, "geometry": {"type": "Point", "coordinates": [-13.2132, 8.4160]}},
    {"type": "Feature", "properties": {"street_name": "Calaba Town Main Road", "postal_code": "1128", "zone_name": "Calaba Town"}, "geometry": {"type": "Point", "coordinates": [-13.1452, 8.4994]}},
    {"type": "Feature", "properties": {"street_name": "Allen Town Main Road", "postal_code": "1129", "zone_name": "Allen Town"}, "geometry": {"type": "Point", "coordinates": [-13.1348, 8.5042]}},
    {"type": "Feature", "properties": {"street_name": "Portee Main Road", "postal_code": "1127", "zone_name": "Portee"}, "geometry": {"type": "Point", "coordinates": [-13.1556, 8.4916]}},
    {"type": "Feature", "properties": {"street_name": "Goderich Main Road", "postal_code": "1120", "zone_name": "Goderich"}, "geometry": {"type": "Point", "coordinates": [-13.3180, 8.4058]}},
    {"type": "Feature", "properties": {"street_name": "Cockle Bay Main Road", "postal_code": "1119", "zone_name": "Cockle Bay"}, "geometry": {"type": "Point", "coordinates": [-13.3080, 8.4112]}},
    {"type": "Feature", "properties": {"street_name": "Juba Main Road", "postal_code": "1121", "zone_name": "Juba"}, "geometry": {"type": "Point", "coordinates": [-13.3020, 8.4446]}},
    {"type": "Feature", "properties": {"street_name": "Lakka Beach Road", "postal_code": "1029", "zone_name": "Lakka Beach"}, "geometry": {"type": "Point", "coordinates": [-13.3280, 8.3880]}},
    {"type": "Feature", "properties": {"street_name": "Kingtom Road", "postal_code": "1130", "zone_name": "Kingtom"}, "geometry": {"type": "Point", "coordinates": [-13.2560, 8.4800]}},
    {"type": "Feature", "properties": {"street_name": "Government Wharf Road", "postal_code": "1181", "zone_name": "Government Wharf"}, "geometry": {"type": "Point", "coordinates": [-13.2560, 8.4808]}},
    {"type": "Feature", "properties": {"street_name": "Kroo Town Road", "postal_code": "1131", "zone_name": "Kroo Town"}, "geometry": {"type": "Point", "coordinates": [-13.2070, 8.4976]}},
    {"type": "Feature", "properties": {"street_name": "Cline Town Main Road", "postal_code": "1103", "zone_name": "Cline Town"}, "geometry": {"type": "Point", "coordinates": [-13.2000, 8.4775]}},
    {"type": "Feature", "properties": {"street_name": "Susan's Bay Road", "postal_code": "1133", "zone_name": "Susan's Bay"}, "geometry": {"type": "Point", "coordinates": [-13.2020, 8.4795]}},
    {"type": "Feature", "properties": {"street_name": "Big Wharf Road", "postal_code": "1136", "zone_name": "Big Wharf"}, "geometry": {"type": "Point", "coordinates": [-13.2015, 8.4790]}},
    {"type": "Feature", "properties": {"street_name": "Hastings Main Road", "postal_code": "1006", "zone_name": "Hastings"}, "geometry": {"type": "Point", "coordinates": [-13.1252, 8.3740]}},
    {"type": "Feature", "properties": {"street_name": "Grafton Main Road", "postal_code": "1007", "zone_name": "Grafton"}, "geometry": {"type": "Point", "coordinates": [-13.1468, 8.3890]}},
    {"type": "Feature", "properties": {"street_name": "Newton Main Road", "postal_code": "1005", "zone_name": "Newton"}, "geometry": {"type": "Point", "coordinates": [-13.0768, 8.3644]}},
    {"type": "Feature", "properties": {"street_name": "Benguema Road", "postal_code": "1002", "zone_name": "Benguema"}, "geometry": {"type": "Point", "coordinates": [-13.0550, 8.3350]}},
    {"type": "Feature", "properties": {"street_name": "Tombo Main Road", "postal_code": "1013", "zone_name": "Tombo"}, "geometry": {"type": "Point", "coordinates": [-13.1042, 8.2090]}},
    {"type": "Feature", "properties": {"street_name": "York Village Road", "postal_code": "1011", "zone_name": "York"}, "geometry": {"type": "Point", "coordinates": [-13.2942, 8.3590]}},
    {"type": "Feature", "properties": {"street_name": "Kent Village Road", "postal_code": "1012", "zone_name": "Kent"}, "geometry": {"type": "Point", "coordinates": [-13.2935, 8.3580]}},
    {"type": "Feature", "properties": {"street_name": "Tokeh Beach Road", "postal_code": "1026", "zone_name": "Tokeh"}, "geometry": {"type": "Point", "coordinates": [-13.3300, 8.3550]}},
    {"type": "Feature", "properties": {"street_name": "River No 2 Beach Road", "postal_code": "1025", "zone_name": "River No. 2"}, "geometry": {"type": "Point", "coordinates": [-13.3200, 8.3650]}},
    {"type": "Feature", "properties": {"street_name": "John Obey Beach Road", "postal_code": "1024", "zone_name": "John Obey"}, "geometry": {"type": "Point", "coordinates": [-13.3100, 8.3750]}}
  ]
}
