{
  "type": "FeatureCollection",
  "name": "Freetown_Complete_Streets",
  "crs": {"type": "name", "properties": {"name": "urn:ogc:def:crs:OGC:1.3:CRS84"}},
  "features": [
    {"type": "Feature", "properties": {"STREET": "Siaka Stevens Street", "POST_CODE": "1100", "ZONE": "Central Freetown"}, "geometry": {"type": "Point", "coordinates": [-13.226, 8.477]}},
    {"type": "Feature", "properties": {"STREET": "Rawdon Street", "POST_CODE": "1100", "ZONE": "Central Freetown"}, "geometry": {"type": "Point", "coordinates": [-13.2295, 8.4785]}},
    {"type": "Feature", "properties": {"STREET": "Pademba Road", "POST_CODE": "1100", "ZONE": "Tower Hill"}, "geometry": {"type": "Point", "coordinates": [-13.23, 8.481]}},
    {"type": "Feature", "properties": {"STREET": "Lamina Sankoh Street", "POST_CODE": "1100", "ZONE": "Central Freetown"}, "geometry": {"type": "Point", "coordinates": [-13.2258, 8.4768]}},
    {"type": "Feature", "properties": {"STREET": "Wallace Johnson Street", "POST_CODE": "1100", "ZONE": "Central Freetown"}, "geometry": {"type": "Point", "coordinates": [-13.231, 8.479]}},
    {"type": "Feature", "properties": {"STREET": "Waterloo Main Road", "POST_CODE": "1000", "ZONE": "Waterloo"}, "geometry": {"type": "Point", "coordinates": [-13.06, 8.333]}},
    {"type": "Feature", "properties": {"STREET": "Waterloo Junction Road", "POST_CODE": "1000", "ZONE": "Waterloo"}, "geometry": {"type": "Point", "coordinates": [-13.0576, 8.329]}},
    {"type": "Feature", "properties": {"STREET": "Waterloo Old Road", "POST_CODE": "1000", "ZONE": "Waterloo"}, "geometry": {"type": "Point", "coordinates": [-13.061, 8.332]}},
    {"type": "Feature", "properties": {"STREET": "Benguema Road", "POST_CODE": "1000", "ZONE": "Waterloo"}, "geometry": {"type": "Point", "coordinates": [-13.055, 8.335]}},
    {"type": "Feature", "properties": {"STREET": "Benguema Barracks Road", "POST_CODE": "1000", "ZONE": "Waterloo"}, "geometry": {"type": "Point", "coordinates": [-13.0545, 8.3355]}},
    {"type": "Feature", "properties": {"STREET": "Tombo Highway", "POST_CODE": "1000", "ZONE": "Waterloo"}, "geometry": {"type": "Point", "coordinates": [-13.058, 8.334]}},
    {"type": "Feature", "properties": {"STREET": "Kossoh Town Road", "POST_CODE": "1000", "ZONE": "Waterloo"}, "geometry": {"type": "Point", "coordinates": [-13.059, 8.336]}},
    {"type": "Feature", "properties": {"STREET": "Waterloo Market Road", "POST_CODE": "1000", "ZONE": "Waterloo"}, "geometry": {"type": "Point", "coordinates": [-13.058, 8.3295]}},
    {"type": "Feature", "properties": {"STREET": "Devil Hole Road", "POST_CODE": "1000", "ZONE": "Waterloo"}, "geometry": {"type": "Point", "coordinates": [-13.062, 8.331]}},
    {"type": "Feature", "properties": {"STREET": "Orugu Road", "POST_CODE": "1000", "ZONE": "Waterloo"}, "geometry": {"type": "Point", "coordinates": [-13.0625, 8.3315]}},
    {"type": "Feature", "properties": {"STREET": "Rokel Road", "POST_CODE": "1000", "ZONE": "Waterloo"}, "geometry": {"type": "Point", "coordinates": [-13.056, 8.3345]}},
    {"type": "Feature", "properties": {"STREET": "Tassoh Road", "POST_CODE": "1000", "ZONE": "Waterloo"}, "geometry": {"type": "Point", "coordinates": [-13.0595, 8.3335]}},
    {"type": "Feature", "properties": {"STREET": "Moyiba Road", "POST_CODE": "1000", "ZONE": "Waterloo"}, "geometry": {"type": "Point", "coordinates": [-13.0615, 8.33]}},
    {"type": "Feature", "properties": {"STREET": "Adonkia Road", "POST_CODE": "1000", "ZONE": "Waterloo"}, "geometry": {"type": "Point", "coordinates": [-13.062, 8.335]}},
    {"type": "Feature", "properties": {"STREET": "Songo Road", "POST_CODE": "1000", "ZONE": "Waterloo"}, "geometry": {"type": "Point", "coordinates": [-13.0625, 8.3355]}},
    {"type": "Feature", "properties": {"STREET": "Masiaka Highway", "POST_CODE": "1000", "ZONE": "Waterloo"}, "geometry": {"type": "Point", "coordinates": [-13.064, 8.3365]}},
    {"type": "Feature", "properties": {"STREET": "Jui Main Road", "POST_CODE": "1000", "ZONE": "Jui"}, "geometry": {"type": "Point", "coordinates": [-13.07, 8.34]}},
    {"type": "Feature", "properties": {"STREET": "Jui Junction", "POST_CODE": "1000", "ZONE": "Jui"}, "geometry": {"type": "Point", "coordinates": [-13.0705, 8.3405]}},
    {"type": "Feature", "properties": {"STREET": "Jui Police Road", "POST_CODE": "1000", "ZONE": "Jui"}, "geometry": {"type": "Point", "coordinates": [-13.071, 8.341]}},
    {"type": "Feature", "properties": {"STREET": "Jui Military Road", "POST_CODE": "1000", "ZONE": "Jui"}, "geometry": {"type": "Point", "coordinates": [-13.0715, 8.3415]}},
    {"type": "Feature", "properties": {"STREET": "Jui Hospital Road", "POST_CODE": "1000", "ZONE": "Jui"}, "geometry": {"type": "Point", "coordinates": [-13.072, 8.342]}},
    {"type": "Feature", "properties": {"STREET": "Jui Back Road", "POST_CODE": "1000", "ZONE": "Jui"}, "geometry": {"type": "Point", "coordinates": [-13.0695, 8.3395]}},
    {"type": "Feature", "properties": {"STREET": "Jui Mosque Road", "POST_CODE": "1000", "ZONE": "Jui"}, "geometry": {"type": "Point", "coordinates": [-13.069, 8.339]}},
    {"type": "Feature", "properties": {"STREET": "Jui Market Road", "POST_CODE": "1000", "ZONE": "Jui"}, "geometry": {"type": "Point", "coordinates": [-13.0685, 8.3385]}},
    {"type": "Feature", "properties": {"STREET": "Jui Barracks Road", "POST_CODE": "1000", "ZONE": "Jui"}, "geometry": {"type": "Point", "coordinates": [-13.0725, 8.3425]}},
    {"type": "Feature", "properties": {"STREET": "Jui Training Center Road", "POST_CODE": "1000", "ZONE": "Jui"}, "geometry": {"type": "Point", "coordinates": [-13.073, 8.343]}},
    {"type": "Feature", "properties": {"STREET": "Jui Village Road", "POST_CODE": "1000", "ZONE": "Jui"}, "geometry": {"type": "Point", "coordinates": [-13.068, 8.338]}},
    {"type": "Feature", "properties": {"STREET": "Jui Farmland Road", "POST_CODE": "1000", "ZONE": "Jui"}, "geometry": {"type": "Point", "coordinates": [-13.0675, 8.3375]}},
    {"type": "Feature", "properties": {"STREET": "Jui Estate Road", "POST_CODE": "1000", "ZONE": "Jui"}, "geometry": {"type": "Point", "coordinates": [-13.0735, 8.3435]}},
    {"type": "Feature", "properties": {"STREET": "Imatt Road", "POST_CODE": "1103", "ZONE": "Imatt"}, "geometry": {"type": "Point", "coordinates": [-13.239, 8.47]}},
    {"type": "Feature", "properties": {"STREET": "Imatt Junction", "POST_CODE": "1103", "ZONE": "Imatt"}, "geometry": {"type": "Point", "coordinates": [-13.2395, 8.4705]}},
    {"type": "Feature", "properties": {"STREET": "Imatt Back Road", "POST_CODE": "1103", "ZONE": "Imatt"}, "geometry": {"type": "Point", "coordinates": [-13.2385, 8.4695]}},
    {"type": "Feature", "properties": {"STREET": "Imatt Housing Road", "POST_CODE": "1103", "ZONE": "Imatt"}, "geometry": {"type": "Point", "coordinates": [-13.24, 8.471]}},
    {"type": "Feature", "properties": {"STREET": "Imatt Police Post Road", "POST_CODE": "1103", "ZONE": "Imatt"}, "geometry": {"type": "Point", "coordinates": [-13.2405, 8.4715]}},
    {"type": "Feature", "properties": {"STREET": "Imatt Market Road", "POST_CODE": "1103", "ZONE": "Imatt"}, "geometry": {"type": "Point", "coordinates": [-13.2398, 8.4708]}},
    {"type": "Feature", "properties": {"STREET": "Regent Village Road", "POST_CODE": "1004", "ZONE": "Regent"}, "geometry": {"type": "Point", "coordinates": [-13.2116, 8.414]}},
    {"type": "Feature", "properties": {"STREET": "Regent Main Road", "POST_CODE": "1004", "ZONE": "Regent"}, "geometry": {"type": "Point", "coordinates": [-13.212, 8.4145]}},
    {"type": "Feature", "properties": {"STREET": "Regent Junction", "POST_CODE": "1004", "ZONE": "Regent"}, "geometry": {"type": "Point", "coordinates": [-13.2125, 8.415]}},
    {"type": "Feature", "properties": {"STREET": "Babadorie Road", "POST_CODE": "1004", "ZONE": "Regent"}, "geometry": {"type": "Point", "coordinates": [-13.21, 8.4155]}},
    {"type": "Feature", "properties": {"STREET": "Grafton Road", "POST_CODE": "1004", "ZONE": "Regent"}, "geometry": {"type": "Point", "coordinates": [-13.209, 8.416]}},
    {"type": "Feature", "properties": {"STREET": "Charlotte Village Road", "POST_CODE": "1004", "ZONE": "Regent"}, "geometry": {"type": "Point", "coordinates": [-13.213, 8.4135]}},
    {"type": "Feature", "properties": {"STREET": "Regent Bottom Road", "POST_CODE": "1004", "ZONE": "Regent"}, "geometry": {"type": "Point", "coordinates": [-13.211, 8.413]}},
    {"type": "Feature", "properties": {"STREET": "Regent Top Road", "POST_CODE": "1004", "ZONE": "Regent"}, "geometry": {"type": "Point", "coordinates": [-13.2135, 8.4165]}},
    {"type": "Feature", "properties": {"STREET": "Sugar Loaf Road", "POST_CODE": "1004", "ZONE": "Regent"}, "geometry": {"type": "Point", "coordinates": [-13.214, 8.417]}},
    {"type": "Feature", "properties": {"STREET": "FBC Road", "POST_CODE": "1101", "ZONE": "Fourah Bay"}, "geometry": {"type": "Point", "coordinates": [-13.2055, 8.4895]}},
    {"type": "Feature", "properties": {"STREET": "FBC Campus Road", "POST_CODE": "1101", "ZONE": "Fourah Bay"}, "geometry": {"type": "Point", "coordinates": [-13.206, 8.49]}},
    {"type": "Feature", "properties": {"STREET": "Mount Aureol Road", "POST_CODE": "1101", "ZONE": "Fourah Bay"}, "geometry": {"type": "Point", "coordinates": [-13.2065, 8.4905]}},
    {"type": "Feature", "properties": {"STREET": "Fourah Bay Road", "POST_CODE": "1101", "ZONE": "Fourah Bay"}, "geometry": {"type": "Point", "coordinates": [-13.205, 8.489]}},
    {"type": "Feature", "properties": {"STREET": "New England Main Road", "POST_CODE": "1103", "ZONE": "New England"}, "geometry": {"type": "Point", "coordinates": [-13.241, 8.468]}},
    {"type": "Feature", "properties": {"STREET": "New England Ville", "POST_CODE": "1103", "ZONE": "New England"}, "geometry": {"type": "Point", "coordinates": [-13.242, 8.4685]}},
    {"type": "Feature", "properties": {"STREET": "New England Hill Road", "POST_CODE": "1103", "ZONE": "New England"}, "geometry": {"type": "Point", "coordinates": [-13.2415, 8.4688]}},
    {"type": "Feature", "properties": {"STREET": "Jomo Kenyatta Road", "POST_CODE": "1103", "ZONE": "New England"}, "geometry": {"type": "Point", "coordinates": [-13.24, 8.4675]}},
    {"type": "Feature", "properties": {"STREET": "Dwarzak Farm Road", "POST_CODE": "1103", "ZONE": "Dwarzak"}, "geometry": {"type": "Point", "coordinates": [-13.238, 8.469]}},
    {"type": "Feature", "properties": {"STREET": "Dwarzak Junction", "POST_CODE": "1103", "ZONE": "Dwarzak"}, "geometry": {"type": "Point", "coordinates": [-13.2375, 8.4695]}},
    {"type": "Feature", "properties": {"STREET": "Dwarzak Main Road", "POST_CODE": "1103", "ZONE": "Dwarzak"}, "geometry": {"type": "Point", "coordinates": [-13.2382, 8.4698]}},
    {"type": "Feature", "properties": {"STREET": "Dwarzak School Road", "POST_CODE": "1103", "ZONE": "Dwarzak"}, "geometry": {"type": "Point", "coordinates": [-13.2378, 8.4692]}},
    {"type": "Feature", "properties": {"STREET": "Newton Main Road", "POST_CODE": "1001", "ZONE": "Newton"}, "geometry": {"type": "Point", "coordinates": [-13.0768, 8.3644]}},
    {"type": "Feature", "properties": {"STREET": "Newton Junction", "POST_CODE": "1001", "ZONE": "Newton"}, "geometry": {"type": "Point", "coordinates": [-13.0775, 8.365]}},
    {"type": "Feature", "properties": {"STREET": "Newton Village Road", "POST_CODE": "1001", "ZONE": "Newton"}, "geometry": {"type": "Point", "coordinates": [-13.076, 8.364]}},
    {"type": "Feature", "properties": {"STREET": "Newton Market Road", "POST_CODE": "1001", "ZONE": "Newton"}, "geometry": {"type": "Point", "coordinates": [-13.078, 8.3655]}},
    {"type": "Feature", "properties": {"STREET": "Hastings Main Road", "POST_CODE": "1002", "ZONE": "Hastings"}, "geometry": {"type": "Point", "coordinates": [-13.1252, 8.374]}},
    {"type": "Feature", "properties": {"STREET": "Hastings Airfield Road", "POST_CODE": "1002", "ZONE": "Hastings"}, "geometry": {"type": "Point", "coordinates": [-13.126, 8.375]}},
    {"type": "Feature", "properties": {"STREET": "Hastings Police Road", "POST_CODE": "1002", "ZONE": "Hastings"}, "geometry": {"type": "Point", "coordinates": [-13.1245, 8.3735]}},
    {"type": "Feature", "properties": {"STREET": "Hastings Market Road", "POST_CODE": "1002", "ZONE": "Hastings"}, "geometry": {"type": "Point", "coordinates": [-13.1255, 8.3745]}},
    {"type": "Feature", "properties": {"STREET": "Grafton Main Road", "POST_CODE": "1003", "ZONE": "Grafton"}, "geometry": {"type": "Point", "coordinates": [-13.1468, 8.389]}},
    {"type": "Feature", "properties": {"STREET": "Grafton Village Road", "POST_CODE": "1003", "ZONE": "Grafton"}, "geometry": {"type": "Point", "coordinates": [-13.1465, 8.3885]}},
    {"type": "Feature", "properties": {"STREET": "Grafton Cemetery Road", "POST_CODE": "1003", "ZONE": "Grafton"}, "geometry": {"type": "Point", "coordinates": [-13.1472, 8.3895]}},
    {"type": "Feature", "properties": {"STREET": "Leicester Village Road", "POST_CODE": "1005", "ZONE": "Leicester"}, "geometry": {"type": "Point", "coordinates": [-13.1964, 8.439]}},
    {"type": "Feature", "properties": {"STREET": "Leicester Peak Road", "POST_CODE": "1005", "ZONE": "Leicester"}, "geometry": {"type": "Point", "coordinates": [-13.197, 8.4395]}},
    {"type": "Feature", "properties": {"STREET": "Gloucester Village Road", "POST_CODE": "1006", "ZONE": "Gloucester"}, "geometry": {"type": "Point", "coordinates": [-13.2216, 8.434]}},
    {"type": "Feature", "properties": {"STREET": "York Village Road", "POST_CODE": "1007", "ZONE": "York"}, "geometry": {"type": "Point", "coordinates": [-13.2942, 8.359]}},
    {"type": "Feature", "properties": {"STREET": "Kent Village Road", "POST_CODE": "1007", "ZONE": "York"}, "geometry": {"type": "Point", "coordinates": [-13.2935, 8.358]}},
    {"type": "Feature", "properties": {"STREET": "Tombo Main Road", "POST_CODE": "1008", "ZONE": "Tombo"}, "geometry": {"type": "Point", "coordinates": [-13.1042, 8.209]}},
    {"type": "Feature", "properties": {"STREET": "Tombo Fishing Road", "POST_CODE": "1008", "ZONE": "Tombo"}, "geometry": {"type": "Point", "coordinates": [-13.104, 8.2085]}},
    {"type": "Feature", "properties": {"STREET": "Tombo Market Road", "POST_CODE": "1008", "ZONE": "Tombo"}, "geometry": {"type": "Point", "coordinates": [-13.1045, 8.2095]}},
    {"type": "Feature", "properties": {"STREET": "Wilkinson Road", "POST_CODE": "1103", "ZONE": "Brookfields"}, "geometry": {"type": "Point", "coordinates": [-13.246, 8.46]}},
    {"type": "Feature", "properties": {"STREET": "Main Motor Road", "POST_CODE": "1103", "ZONE": "Brookfields"}, "geometry": {"type": "Point", "coordinates": [-13.245, 8.458]}},
    {"type": "Feature", "properties": {"STREET": "Spur Road", "POST_CODE": "1103", "ZONE": "Brookfields"}, "geometry": {"type": "Point", "coordinates": [-13.247, 8.459]}},
    {"type": "Feature", "properties": {"STREET": "King Harman Road", "POST_CODE": "1103", "ZONE": "Brookfields"}, "geometry": {"type": "Point", "coordinates": [-13.2465, 8.4595]}},
    {"type": "Feature", "properties": {"STREET": "Spur Loop Road", "POST_CODE": "1103", "ZONE": "Brookfields"}, "geometry": {"type": "Point", "coordinates": [-13.2475, 8.4585]}},
    {"type": "Feature", "properties": {"STREET": "SLBS Road", "POST_CODE": "1103", "ZONE": "Brookfields"}, "geometry": {"type": "Point", "coordinates": [-13.2455, 8.4605]}},
    {"type": "Feature", "properties": {"STREET": "PZ Junction", "POST_CODE": "1103", "ZONE": "Brookfields"}, "geometry": {"type": "Point", "coordinates": [-13.245, 8.461]}},
    {"type": "Feature", "properties": {"STREET": "Tengbeh Town Road", "POST_CODE": "1103", "ZONE": "Tengbeh Town"}, "geometry": {"type": "Point", "coordinates": [-13.2435, 8.4775]}},
    {"type": "Feature", "properties": {"STREET": "Hill Station Road", "POST_CODE": "1104", "ZONE": "Hill Station"}, "geometry": {"type": "Point", "coordinates": [-13.2645, 8.454]}},
    {"type": "Feature", "properties": {"STREET": "Regent Road", "POST_CODE": "1104", "ZONE": "Wilberforce"}, "geometry": {"type": "Point", "coordinates": [-13.271, 8.442]}},
    {"type": "Feature", "properties": {"STREET": "Signal Hill Road", "POST_CODE": "1104", "ZONE": "Signal Hill"}, "geometry": {"type": "Point", "coordinates": [-13.278, 8.437]}},
    {"type": "Feature", "properties": {"STREET": "Leicester Road", "POST_CODE": "1104", "ZONE": "Hill Station"}, "geometry": {"type": "Point", "coordinates": [-13.2655, 8.453]}},
    {"type": "Feature", "properties": {"STREET": "Ross Road", "POST_CODE": "1104", "ZONE": "Hill Station"}, "geometry": {"type": "Point", "coordinates": [-13.2648, 8.4535]}},
    {"type": "Feature", "properties": {"STREET": "Ginger Hall Road", "POST_CODE": "1104", "ZONE": "Hill Station"}, "geometry": {"type": "Point", "coordinates": [-13.265, 8.4545]}},
    {"type": "Feature", "properties": {"STREET": "Wilberforce Village Road", "POST_CODE": "1104", "ZONE": "Wilberforce"}, "geometry": {"type": "Point", "coordinates": [-13.27, 8.441]}},
    {"type": "Feature", "properties": {"STREET": "Wilberforce Barracks Road", "POST_CODE": "1104", "ZONE": "Wilberforce"}, "geometry": {"type": "Point", "coordinates": [-13.2705, 8.4415]}},
    {"type": "Feature", "properties": {"STREET": "Lumley Beach Road", "POST_CODE": "1105", "ZONE": "Lumley"}, "geometry": {"type": "Point", "coordinates": [-13.286, 8.432]}},
    {"type": "Feature", "properties": {"STREET": "Lumley Junction", "POST_CODE": "1105", "ZONE": "Lumley"}, "geometry": {"type": "Point", "coordinates": [-13.2865, 8.4325]}},
    {"type": "Feature", "properties": {"STREET": "Aberdeen Road", "POST_CODE": "1105", "ZONE": "Aberdeen"}, "geometry": {"type": "Point", "coordinates": [-13.2935, 8.418]}},
    {"type": "Feature", "properties": {"STREET": "Aberdeen Junction", "POST_CODE": "1105", "ZONE": "Aberdeen"}, "geometry": {"type": "Point", "coordinates": [-13.293, 8.4185]}},
    {"type": "Feature", "properties": {"STREET": "Aberdeen Ferry Road", "POST_CODE": "1105", "ZONE": "Aberdeen"}, "geometry": {"type": "Point", "coordinates": [-13.294, 8.4175]}},
    {"type": "Feature", "properties": {"STREET": "Cape Road", "POST_CODE": "1105", "ZONE": "Aberdeen"}, "geometry": {"type": "Point", "coordinates": [-13.2938, 8.4178]}},
    {"type": "Feature", "properties": {"STREET": "Man of War Bay Road", "POST_CODE": "1105", "ZONE": "Aberdeen"}, "geometry": {"type": "Point", "coordinates": [-13.2932, 8.4182]}},
    {"type": "Feature", "properties": {"STREET": "Mama Beach Road", "POST_CODE": "1105", "ZONE": "Aberdeen"}, "geometry": {"type": "Point", "coordinates": [-13.2945, 8.417]}},
    {"type": "Feature", "properties": {"STREET": "Cockle Bay Road", "POST_CODE": "1105", "ZONE": "Cockle Bay"}, "geometry": {"type": "Point", "coordinates": [-13.3082, 8.411]}},
    {"type": "Feature", "properties": {"STREET": "Goderich Street", "POST_CODE": "1106", "ZONE": "Goderich"}, "geometry": {"type": "Point", "coordinates": [-13.318, 8.406]}},
    {"type": "Feature", "properties": {"STREET": "Juba Road", "POST_CODE": "1106", "ZONE": "Juba"}, "geometry": {"type": "Point", "coordinates": [-13.302, 8.4445]}},
    {"type": "Feature", "properties": {"STREET": "Lakka Road", "POST_CODE": "1106", "ZONE": "Lakka"}, "geometry": {"type": "Point", "coordinates": [-13.328, 8.388]}},
    {"type": "Feature", "properties": {"STREET": "Tokeh Road", "POST_CODE": "1106", "ZONE": "Lakka"}, "geometry": {"type": "Point", "coordinates": [-13.3285, 8.3875]}},
    {"type": "Feature", "properties": {"STREET": "Hamilton Road", "POST_CODE": "1106", "ZONE": "Lakka"}, "geometry": {"type": "Point", "coordinates": [-13.3282, 8.3878]}},
    {"type": "Feature", "properties": {"STREET": "River No. 2 Road", "POST_CODE": "1106", "ZONE": "Lakka"}, "geometry": {"type": "Point", "coordinates": [-13.329, 8.387]}},
    {"type": "Feature", "properties": {"STREET": "Kissy Road", "POST_CODE": "1107", "ZONE": "Kissy"}, "geometry": {"type": "Point", "coordinates": [-13.183, 8.487]}},
    {"type": "Feature", "properties": {"STREET": "Bai Bureh Road", "POST_CODE": "1107", "ZONE": "Kissy"}, "geometry": {"type": "Point", "coordinates": [-13.1835, 8.4865]}},
    {"type": "Feature", "properties": {"STREET": "Kissy Bye Pass Road", "POST_CODE": "1107", "ZONE": "Kissy Brook"}, "geometry": {"type": "Point", "coordinates": [-13.179, 8.472]}},
    {"type": "Feature", "properties": {"STREET": "Upper Kissy Road", "POST_CODE": "1107", "ZONE": "Kissy Brook"}, "geometry": {"type": "Point", "coordinates": [-13.1795, 8.4725]}},
    {"type": "Feature", "properties": {"STREET": "Blackhall Road", "POST_CODE": "1107", "ZONE": "Kissy Mess Mess"}, "geometry": {"type": "Point", "coordinates": [-13.1735, 8.4555]}},
    {"type": "Feature", "properties": {"STREET": "Grassfield Road", "POST_CODE": "1107", "ZONE": "Kissy Mess Mess"}, "geometry": {"type": "Point", "coordinates": [-13.1738, 8.4558]}},
    {"type": "Feature", "properties": {"STREET": "Kissy Shell Road", "POST_CODE": "1107", "ZONE": "Kissy"}, "geometry": {"type": "Point", "coordinates": [-13.1828, 8.4872]}},
    {"type": "Feature", "properties": {"STREET": "Kissy Dockyards Road", "POST_CODE": "1107", "ZONE": "Kissy"}, "geometry": {"type": "Point", "coordinates": [-13.1832, 8.4868]}},
    {"type": "Feature", "properties": {"STREET": "Wellington Street", "POST_CODE": "1108", "ZONE": "Wellington"}, "geometry": {"type": "Point", "coordinates": [-13.1625, 8.487]}},
    {"type": "Feature", "properties": {"STREET": "Wellington Industrial Estate", "POST_CODE": "1108", "ZONE": "Wellington"}, "geometry": {"type": "Point", "coordinates": [-13.163, 8.4875]}},
    {"type": "Feature", "properties": {"STREET": "Shell Compound Road", "POST_CODE": "1108", "ZONE": "Wellington"}, "geometry": {"type": "Point", "coordinates": [-13.162, 8.486]}},
    {"type": "Feature", "properties": {"STREET": "Old Wharf Road", "POST_CODE": "1108", "ZONE": "Wellington"}, "geometry": {"type": "Point", "coordinates": [-13.163, 8.4865]}},
    {"type": "Feature", "properties": {"STREET": "Ferry Junction", "POST_CODE": "1108", "ZONE": "Wellington"}, "geometry": {"type": "Point", "coordinates": [-13.1635, 8.488]}},
    {"type": "Feature", "properties": {"STREET": "Portee Road", "POST_CODE": "1108", "ZONE": "Portee"}, "geometry": {"type": "Point", "coordinates": [-13.1555, 8.4915]}},
    {"type": "Feature", "properties": {"STREET": "Calaba Town Road", "POST_CODE": "1109", "ZONE": "Calaba Town"}, "geometry": {"type": "Point", "coordinates": [-13.145, 8.4995]}},
    {"type": "Feature", "properties": {"STREET": "Calaba Town Junction", "POST_CODE": "1109", "ZONE": "Calaba Town"}, "geometry": {"type": "Point", "coordinates": [-13.1455, 8.4998]}},
    {"type": "Feature", "properties": {"STREET": "Allen Town Road", "POST_CODE": "1109", "ZONE": "Allen Town"}, "geometry": {"type": "Point", "coordinates": [-13.135, 8.504]}},
    {"type": "Feature", "properties": {"STREET": "Allen Town Junction", "POST_CODE": "1109", "ZONE": "Allen Town"}, "geometry": {"type": "Point", "coordinates": [-13.1345, 8.5045]}},
    {"type": "Feature", "properties": {"STREET": "Peninsular Road", "POST_CODE": "1109", "ZONE": "Allen Town"}, "geometry": {"type": "Point", "coordinates": [-13.135, 8.505]}},
    {"type": "Feature", "properties": {"STREET": "Kingtom Road", "POST_CODE": "1110", "ZONE": "Kingtom"}, "geometry": {"type": "Point", "coordinates": [-13.256, 8.48]}},
    {"type": "Feature", "properties": {"STREET": "Fisher Street", "POST_CODE": "1110", "ZONE": "Kingtom"}, "geometry": {"type": "Point", "coordinates": [-13.2555, 8.4805]}},
    {"type": "Feature", "properties": {"STREET": "Ferry Road", "POST_CODE": "1110", "ZONE": "Kingtom"}, "geometry": {"type": "Point", "coordinates": [-13.2558, 8.4802]}},
    {"type": "Feature", "properties": {"STREET": "Queen Elizabeth Quay", "POST_CODE": "1110", "ZONE": "Kingtom"}, "geometry": {"type": "Point", "coordinates": [-13.2565, 8.481]}},
    {"type": "Feature", "properties": {"STREET": "Government Wharf Road", "POST_CODE": "1110", "ZONE": "Kingtom"}, "geometry": {"type": "Point", "coordinates": [-13.256, 8.4808]}},
    {"type": "Feature", "properties": {"STREET": "Kroo Town Road", "POST_CODE": "1110", "ZONE": "Kroo Town"}, "geometry": {"type": "Point", "coordinates": [-13.207, 8.4975]}},
    {"type": "Feature", "properties": {"STREET": "Crab Town Road", "POST_CODE": "1110", "ZONE": "Kroo Town"}, "geometry": {"type": "Point", "coordinates": [-13.2065, 8.498]}},
    {"type": "Feature", "properties": {"STREET": "Circular Road", "POST_CODE": "1102", "ZONE": "Foulah Town"}, "geometry": {"type": "Point", "coordinates": [-13.221, 8.487]}},
    {"type": "Feature", "properties": {"STREET": "Congo Cross", "POST_CODE": "1102", "ZONE": "Congo Town"}, "geometry": {"type": "Point", "coordinates": [-13.212, 8.491]}},
    {"type": "Feature", "properties": {"STREET": "Murray Town Road", "POST_CODE": "1102", "ZONE": "Murray Town"}, "geometry": {"type": "Point", "coordinates": [-13.266, 8.468]}},
    {"type": "Feature", "properties": {"STREET": "Murray Town Barracks Road", "POST_CODE": "1102", "ZONE": "Murray Town"}, "geometry": {"type": "Point", "coordinates": [-13.2665, 8.4675]}},
    {"type": "Feature", "properties": {"STREET": "Mountain Cut", "POST_CODE": "1102", "ZONE": "Congo Town"}, "geometry": {"type": "Point", "coordinates": [-13.2118, 8.4908]}},
    {"type": "Feature", "properties": {"STREET": "Congo Water Road", "POST_CODE": "1102", "ZONE": "Congo Town"}, "geometry": {"type": "Point", "coordinates": [-13.2122, 8.4912]}},
    {"type": "Feature", "properties": {"STREET": "Samba Gutter", "POST_CODE": "1102", "ZONE": "Foulah Town"}, "geometry": {"type": "Point", "coordinates": [-13.2212, 8.4868]}},
    {"type": "Feature", "properties": {"STREET": "Model School Road", "POST_CODE": "1102", "ZONE": "Congo Town"}, "geometry": {"type": "Point", "coordinates": [-13.2115, 8.4905]}},
    {"type": "Feature", "properties": {"STREET": "East Street", "POST_CODE": "1101", "ZONE": "Cline Town"}, "geometry": {"type": "Point", "coordinates": [-13.201, 8.478]}},
    {"type": "Feature", "properties": {"STREET": "Cline Town Main Road", "POST_CODE": "1101", "ZONE": "Cline Town"}, "geometry": {"type": "Point", "coordinates": [-13.2, 8.4775]}},
    {"type": "Feature", "properties": {"STREET": "Susan's Bay Road", "POST_CODE": "1101", "ZONE": "Cline Town"}, "geometry": {"type": "Point", "coordinates": [-13.202, 8.4795]}},
    {"type": "Feature", "properties": {"STREET": "Magazine Cut", "POST_CODE": "1101", "ZONE": "Cline Town"}, "geometry": {"type": "Point", "coordinates": [-13.2, 8.4785]}},
    {"type": "Feature", "properties": {"STREET": "Thunder Hill Road", "POST_CODE": "1101", "ZONE": "Cline Town"}, "geometry": {"type": "Point", "coordinates": [-13.2005, 8.4782]}},
    {"type": "Feature", "properties": {"STREET": "Big Wharf Road", "POST_CODE": "1101", "ZONE": "Cline Town"}, "geometry": {"type": "Point", "coordinates": [-13.2015, 8.479]}},
    {"type": "Feature", "properties": {"STREET": "Back Street", "POST_CODE": "1101", "ZONE": "Cline Town"}, "geometry": {"type": "Point", "coordinates": [-13.2015, 8.4775]}}
  ]
}
