{
  "type": "FeatureCollection",
  "name": "Freetown_Streets",
  "crs": {"type": "name", "properties": {"name": "urn:ogc:def:crs:OGC:1.3:CRS84"}},
  "features": [
    {"type": "Feature", "properties": {"STREET": "Siaka Stevens Street", "POST_CODE": "1100", "ZONE": "Siaka Stevens Street", "TYPE": "primary"}, "geometry": {"type": "Point", "coordinates": [-13.226, 8.477]}},
    {"type": "Feature", "properties": {"STREET": "Rawdon Street", "POST_CODE": "1100", "ZONE": "Central Freetown CBD", "TYPE": "secondary"}, "geometry": {"type": "Point", "coordinates": [-13.2295, 8.4785]}},
    {"type": "Feature", "properties": {"STREET": "Lightfoot Boston Street", "POST_CODE": "1100", "ZONE": "Central Freetown CBD", "TYPE": "secondary"}, "geometry": {"type": "Point", "coordinates": [-13.227, 8.4792]}},
    {"type": "Feature", "properties": {"STREET": "Gloucester Street", "POST_CODE": "1100", "ZONE": "Central Freetown CBD", "TYPE": "secondary"}, "geometry": {"type": "Point", "coordinates": [-13.2255, 8.478]}},
    {"type": "Feature", "properties": {"STREET": "Howe Street", "POST_CODE": "1100", "ZONE": "Central Freetown CBD", "TYPE": "secondary"}, "geometry": {"type": "Point", "coordinates": [-13.224, 8.4775]}},
    {"type": "Feature", "properties": {"STREET": "Pademba Road", "POST_CODE": "1100", "ZONE": "Tower Hill", "TYPE": "primary"}, "geometry": {"type": "Point", "coordinates": [-13.23, 8.481]}},
    {"type": "Feature", "properties": {"STREET": "Tower Hill", "POST_CODE": "1100", "ZONE": "Tower Hill", "TYPE": "tertiary"}, "geometry": {"type": "Point", "coordinates": [-13.2285, 8.482]}},
    {"type": "Feature", "properties": {"STREET": "Charlotte Street", "POST_CODE": "1100", "ZONE": "Central Freetown CBD", "TYPE": "secondary"}, "geometry": {"type": "Point", "coordinates": [-13.2275, 8.4765]}},
    {"type": "Feature", "properties": {"STREET": "Garrison Street", "POST_CODE": "1100", "ZONE": "Central Freetown CBD", "TYPE": "secondary"}, "geometry": {"type": "Point", "coordinates": [-13.2265, 8.476]}},
    {"type": "Feature", "properties": {"STREET": "Wilberforce Street", "POST_CODE": "1100", "ZONE": "Central Freetown CBD", "TYPE": "secondary"}, "geometry": {"type": "Point", "coordinates": [-13.225, 8.4755]}},
    {"type": "Feature", "properties": {"STREET": "Oxford Street", "POST_CODE": "1100", "ZONE": "Central Freetown CBD", "TYPE": "secondary"}, "geometry": {"type": "Point", "coordinates": [-13.2242, 8.4748]}},
    {"type": "Feature", "properties": {"STREET": "Wallace Johnson Street", "POST_CODE": "1100", "ZONE": "Central Freetown CBD", "TYPE": "secondary"}, "geometry": {"type": "Point", "coordinates": [-13.231, 8.479]}},
    {"type": "Feature", "properties": {"STREET": "Walpole Street", "POST_CODE": "1100", "ZONE": "Central Freetown CBD", "TYPE": "secondary"}, "geometry": {"type": "Point", "coordinates": [-13.2305, 8.4782]}},
    {"type": "Feature", "properties": {"STREET": "East Street", "POST_CODE": "1101", "ZONE": "Cline Town", "TYPE": "secondary"}, "geometry": {"type": "Point", "coordinates": [-13.201, 8.478]}},
    {"type": "Feature", "properties": {"STREET": "Cline Street", "POST_CODE": "1101", "ZONE": "Cline Town", "TYPE": "tertiary"}, "geometry": {"type": "Point", "coordinates": [-13.199, 8.477]}},
    {"type": "Feature", "properties": {"STREET": "Susan's Bay Road", "POST_CODE": "1101", "ZONE": "Cline Town", "TYPE": "secondary"}, "geometry": {"type": "Point", "coordinates": [-13.202, 8.4795]}},
    {"type": "Feature", "properties": {"STREET": "Fourah Bay Road", "POST_CODE": "1101", "ZONE": "Fourah Bay", "TYPE": "primary"}, "geometry": {"type": "Point", "coordinates": [-13.205, 8.489]}},
    {"type": "Feature", "properties": {"STREET": "Circular Road", "POST_CODE": "1102", "ZONE": "Foulah Town", "TYPE": "primary"}, "geometry": {"type": "Point", "coordinates": [-13.221, 8.487]}},
    {"type": "Feature", "properties": {"STREET": "Congo Cross", "POST_CODE": "1102", "ZONE": "Congo Town", "TYPE": "secondary"}, "geometry": {"type": "Point", "coordinates": [-13.212, 8.491]}},
    {"type": "Feature", "properties": {"STREET": "Model School Road", "POST_CODE": "1102", "ZONE": "Congo Town", "TYPE": "tertiary"}, "geometry": {"type": "Point", "coordinates": [-13.2115, 8.4905]}},
    {"type": "Feature", "properties": {"STREET": "Murray Town Road", "POST_CODE": "1102", "ZONE": "Murray Town", "TYPE": "primary"}, "geometry": {"type": "Point", "coordinates": [-13.266, 8.468]}},
    {"type": "Feature", "properties": {"STREET": "Aberdeen Road", "POST_CODE": "1105", "ZONE": "Aberdeen", "TYPE": "primary"}, "geometry": {"type": "Point", "coordinates": [-13.2935, 8.418]}},
    {"type": "Feature", "properties": {"STREET": "Lumley Beach Road", "POST_CODE": "1105", "ZONE": "Lumley", "TYPE": "primary"}, "geometry": {"type": "Point", "coordinates": [-13.286, 8.432]}},
    {"type": "Feature", "properties": {"STREET": "Wilkinson Road", "POST_CODE": "1103", "ZONE": "Brookfields", "TYPE": "primary"}, "geometry": {"type": "Point", "coordinates": [-13.246, 8.46]}},
    {"type": "Feature", "properties": {"STREET": "Spur Road", "POST_CODE": "1103", "ZONE": "Brookfields", "TYPE": "secondary"}, "geometry": {"type": "Point", "coordinates": [-13.247, 8.459]}},
    {"type": "Feature", "properties": {"STREET": "Jomo Kenyatta Road", "POST_CODE": "1103", "ZONE": "New England", "TYPE": "primary"}, "geometry": {"type": "Point", "coordinates": [-13.24, 8.4675]}},
    {"type": "Feature", "properties": {"STREET": "Main Motor Road", "POST_CODE": "1103", "ZONE": "Brookfields", "TYPE": "primary"}, "geometry": {"type": "Point", "coordinates": [-13.245, 8.458]}},
    {"type": "Feature", "properties": {"STREET": "Hill Station Road", "POST_CODE": "1104", "ZONE": "Hill Station", "TYPE": "primary"}, "geometry": {"type": "Point", "coordinates": [-13.2645, 8.454]}},
    {"type": "Feature", "properties": {"STREET": "Regent Road", "POST_CODE": "1104", "ZONE": "Wilberforce", "TYPE": "secondary"}, "geometry": {"type": "Point", "coordinates": [-13.271, 8.442]}},
    {"type": "Feature", "properties": {"STREET": "Signal Hill Road", "POST_CODE": "1104", "ZONE": "Signal Hill", "TYPE": "tertiary"}, "geometry": {"type": "Point", "coordinates": [-13.278, 8.437]}},
    {"type": "Feature", "properties": {"STREET": "Wilberforce Village Road", "POST_CODE": "1104", "ZONE": "Wilberforce", "TYPE": "tertiary"}, "geometry": {"type": "Point", "coordinates": [-13.27, 8.441]}},
    {"type": "Feature", "properties": {"STREET": "Goderich Street", "POST_CODE": "1106", "ZONE": "Goderich", "TYPE": "secondary"}, "geometry": {"type": "Point", "coordinates": [-13.318, 8.406]}},
    {"type": "Feature", "properties": {"STREET": "Lakka Road", "POST_CODE": "1106", "ZONE": "Lakka", "TYPE": "secondary"}, "geometry": {"type": "Point", "coordinates": [-13.328, 8.388]}},
    {"type": "Feature", "properties": {"STREET": "Juba Road", "POST_CODE": "1106", "ZONE": "Juba", "TYPE": "secondary"}, "geometry": {"type": "Point", "coordinates": [-13.302, 8.4445]}},
    {"type": "Feature", "properties": {"STREET": "Kissy Road", "POST_CODE": "1107", "ZONE": "Kissy", "TYPE": "primary"}, "geometry": {"type": "Point", "coordinates": [-13.183, 8.487]}},
    {"type": "Feature", "properties": {"STREET": "Bai Bureh Road", "POST_CODE": "1107", "ZONE": "Kissy", "TYPE": "secondary"}, "geometry": {"type": "Point", "coordinates": [-13.1835, 8.4865]}},
    {"type": "Feature", "properties": {"STREET": "Kissy Bye Pass Road", "POST_CODE": "1107", "ZONE": "Kissy Brook", "TYPE": "primary"}, "geometry": {"type": "Point", "coordinates": [-13.179, 8.472]}},
    {"type": "Feature", "properties": {"STREET": "Blackhall Road", "POST_CODE": "1107", "ZONE": "Kissy Mess Mess", "TYPE": "secondary"}, "geometry": {"type": "Point", "coordinates": [-13.1735, 8.4555]}},
    {"type": "Feature", "properties": {"STREET": "Wellington Street", "POST_CODE": "1108", "ZONE": "Wellington", "TYPE": "primary"}, "geometry": {"type": "Point", "coordinates": [-13.1625, 8.487]}},
    {"type": "Feature", "properties": {"STREET": "Portee Road", "POST_CODE": "1108", "ZONE": "Portee", "TYPE": "secondary"}, "geometry": {"type": "Point", "coordinates": [-13.1555, 8.4915]}},
    {"type": "Feature", "properties": {"STREET": "Old Wharf Road", "POST_CODE": "1108", "ZONE": "Wellington", "TYPE": "tertiary"}, "geometry": {"type": "Point", "coordinates": [-13.163, 8.4865]}},
    {"type": "Feature", "properties": {"STREET": "Shell Compound Road", "POST_CODE": "1108", "ZONE": "Wellington", "TYPE": "tertiary"}, "geometry": {"type": "Point", "coordinates": [-13.162, 8.486]}},
    {"type": "Feature", "properties": {"STREET": "Calaba Town Road", "POST_CODE": "1109", "ZONE": "Calaba Town", "TYPE": "secondary"}, "geometry": {"type": "Point", "coordinates": [-13.145, 8.4995]}},
    {"type": "Feature", "properties": {"STREET": "Allen Town Road", "POST_CODE": "1109", "ZONE": "Allen Town", "TYPE": "secondary"}, "geometry": {"type": "Point", "coordinates": [-13.135, 8.504]}},
    {"type": "Feature", "properties": {"STREET": "Peninsular Road", "POST_CODE": "1109", "ZONE": "Allen Town", "TYPE": "primary"}, "geometry": {"type": "Point", "coordinates": [-13.1345, 8.5045]}},
    {"type": "Feature", "properties": {"STREET": "Kingtom Road", "POST_CODE": "1110", "ZONE": "Kingtom", "TYPE": "secondary"}, "geometry": {"type": "Point", "coordinates": [-13.256, 8.48]}},
    {"type": "Feature", "properties": {"STREET": "Kroo Town Road", "POST_CODE": "1110", "ZONE": "Kroo Town", "TYPE": "secondary"}, "geometry": {"type": "Point", "coordinates": [-13.207, 8.4975]}},
    {"type": "Feature", "properties": {"STREET": "Macauley Street", "POST_CODE": "1110", "ZONE": "Kroo Town", "TYPE": "tertiary"}, "geometry": {"type": "Point", "coordinates": [-13.2075, 8.497]}},
    {"type": "Feature", "properties": {"STREET": "Fisher Street", "POST_CODE": "1110", "ZONE": "Kingtom", "TYPE": "tertiary"}, "geometry": {"type": "Point", "coordinates": [-13.2555, 8.4805]}},
    {"type": "Feature", "properties": {"STREET": "Queen Elizabeth II Quay", "POST_CODE": "1110", "ZONE": "Kingtom", "TYPE": "tertiary"}, "geometry": {"type": "Point", "coordinates": [-13.2565, 8.481]}},
    {"type": "Feature", "properties": {"STREET": "Sanders Street", "POST_CODE": "1100", "ZONE": "Central Freetown CBD", "TYPE": "secondary"}, "geometry": {"type": "Point", "coordinates": [-13.2268, 8.4778]}},
    {"type": "Feature", "properties": {"STREET": "Liverpool Street", "POST_CODE": "1100", "ZONE": "Central Freetown CBD", "TYPE": "secondary"}, "geometry": {"type": "Point", "coordinates": [-13.2262, 8.4772]}},
    {"type": "Feature", "properties": {"STREET": "Waterloo Street", "POST_CODE": "1100", "ZONE": "Central Freetown CBD", "TYPE": "secondary"}, "geometry": {"type": "Point", "coordinates": [-13.2258, 8.4768]}},
    {"type": "Feature", "properties": {"STREET": "Percival Street", "POST_CODE": "1100", "ZONE": "Central Freetown CBD", "TYPE": "tertiary"}, "geometry": {"type": "Point", "coordinates": [-13.2252, 8.4763]}},
    {"type": "Feature", "properties": {"STREET": "Krootown Road Extension", "POST_CODE": "1110", "ZONE": "Kroo Town", "TYPE": "secondary"}, "geometry": {"type": "Point", "coordinates": [-13.2065, 8.498]}},
    {"type": "Feature", "properties": {"STREET": "George Street", "POST_CODE": "1100", "ZONE": "Central Freetown CBD", "TYPE": "secondary"}, "geometry": {"type": "Point", "coordinates": [-13.2272, 8.4782]}},
    {"type": "Feature", "properties": {"STREET": "Regent Street", "POST_CODE": "1100", "ZONE": "Central Freetown CBD", "TYPE": "secondary"}, "geometry": {"type": "Point", "coordinates": [-13.2275, 8.4778]}},
    {"type": "Feature", "properties": {"STREET": "Westmoreland Street", "POST_CODE": "1100", "ZONE": "Central Freetown CBD", "TYPE": "secondary"}, "geometry": {"type": "Point", "coordinates": [-13.2278, 8.4775]}},
    {"type": "Feature", "properties": {"STREET": "Martin Street", "POST_CODE": "1100", "ZONE": "Central Freetown CBD", "TYPE": "tertiary"}, "geometry": {"type": "Point", "coordinates": [-13.228, 8.477]}},
    {"type": "Feature", "properties": {"STREET": "Bath Street", "POST_CODE": "1100", "ZONE": "Central Freetown CBD", "TYPE": "tertiary"}, "geometry": {"type": "Point", "coordinates": [-13.2282, 8.4765]}},
    {"type": "Feature", "properties": {"STREET": "Campbell Street", "POST_CODE": "1100", "ZONE": "Central Freetown CBD", "TYPE": "tertiary"}, "geometry": {"type": "Point", "coordinates": [-13.2285, 8.476]}},
    {"type": "Feature", "properties": {"STREET": "Kroo Bay Road", "POST_CODE": "1100", "ZONE": "Central Freetown CBD", "TYPE": "secondary"}, "geometry": {"type": "Point", "coordinates": [-13.229, 8.4755]}},
    {"type": "Feature", "properties": {"STREET": "Back Street", "POST_CODE": "1101", "ZONE": "Cline Town", "TYPE": "tertiary"}, "geometry": {"type": "Point", "coordinates": [-13.2015, 8.4775]}},
    {"type": "Feature", "properties": {"STREET": "Thunder Hill", "POST_CODE": "1101", "ZONE": "Cline Town", "TYPE": "tertiary"}, "geometry": {"type": "Point", "coordinates": [-13.2005, 8.4782]}},
    {"type": "Feature", "properties": {"STREET": "Magazine Cut", "POST_CODE": "1101", "ZONE": "Cline Town", "TYPE": "tertiary"}, "geometry": {"type": "Point", "coordinates": [-13.2, 8.4785]}},
    {"type": "Feature", "properties": {"STREET": "Pultney Street", "POST_CODE": "1101", "ZONE": "Fourah Bay", "TYPE": "tertiary"}, "geometry": {"type": "Point", "coordinates": [-13.2055, 8.4888]}},
    {"type": "Feature", "properties": {"STREET": "Savage Square", "POST_CODE": "1101", "ZONE": "Fourah Bay", "TYPE": "tertiary"}, "geometry": {"type": "Point", "coordinates": [-13.2048, 8.4885]}},
    {"type": "Feature", "properties": {"STREET": "Mountain Cut", "POST_CODE": "1102", "ZONE": "Congo Town", "TYPE": "tertiary"}, "geometry": {"type": "Point", "coordinates": [-13.2118, 8.4908]}},
    {"type": "Feature", "properties": {"STREET": "Lamina Sankoh Street", "POST_CODE": "1100", "ZONE": "Siaka Stevens Street", "TYPE": "primary"}, "geometry": {"type": "Point", "coordinates": [-13.2258, 8.4768]}},
    {"type": "Feature", "properties": {"STREET": "Daniel Street", "POST_CODE": "1100", "ZONE": "Central Freetown CBD", "TYPE": "tertiary"}, "geometry": {"type": "Point", "coordinates": [-13.2248, 8.4758]}},
    {"type": "Feature", "properties": {"STREET": "Trelawney Street", "POST_CODE": "1100", "ZONE": "Central Freetown CBD", "TYPE": "tertiary"}, "geometry": {"type": "Point", "coordinates": [-13.2245, 8.4752]}},
    {"type": "Feature", "properties": {"STREET": "Soldier Street", "POST_CODE": "1100", "ZONE": "Central Freetown CBD", "TYPE": "tertiary"}, "geometry": {"type": "Point", "coordinates": [-13.2242, 8.4748]}},
    {"type": "Feature", "properties": {"STREET": "Ross Road", "POST_CODE": "1104", "ZONE": "Hill Station", "TYPE": "secondary"}, "geometry": {"type": "Point", "coordinates": [-13.2648, 8.4535]}},
    {"type": "Feature", "properties": {"STREET": "Leicester Road", "POST_CODE": "1104", "ZONE": "Hill Station", "TYPE": "secondary"}, "geometry": {"type": "Point", "coordinates": [-13.2655, 8.453]}},
    {"type": "Feature", "properties": {"STREET": "Tokeh Road", "POST_CODE": "1106", "ZONE": "Lakka", "TYPE": "secondary"}, "geometry": {"type": "Point", "coordinates": [-13.3285, 8.3875]}},
    {"type": "Feature", "properties": {"STREET": "Hamilton Beach Road", "POST_CODE": "1106", "ZONE": "Lakka", "TYPE": "tertiary"}, "geometry": {"type": "Point", "coordinates": [-13.3282, 8.3878]}},
    {"type": "Feature", "properties": {"STREET": "River Number Two Road", "POST_CODE": "1106", "ZONE": "Lakka", "TYPE": "tertiary"}, "geometry": {"type": "Point", "coordinates": [-13.329, 8.387]}},
    {"type": "Feature", "properties": {"STREET": "Cape Road", "POST_CODE": "1105", "ZONE": "Aberdeen", "TYPE": "secondary"}, "geometry": {"type": "Point", "coordinates": [-13.2938, 8.4178]}},
    {"type": "Feature", "properties": {"STREET": "Man of War Bay Road", "POST_CODE": "1105", "ZONE": "Aberdeen", "TYPE": "tertiary"}, "geometry": {"type": "Point", "coordinates": [-13.2932, 8.4182]}},
    {"type": "Feature", "properties": {"STREET": "Cockle Bay Road", "POST_CODE": "1105", "ZONE": "Cockle Bay", "TYPE": "secondary"}, "geometry": {"type": "Point", "coordinates": [-13.3082, 8.411]}},
    {"type": "Feature", "properties": {"STREET": "Samba Gutter", "POST_CODE": "1102", "ZONE": "Foulah Town", "TYPE": "tertiary"}, "geometry": {"type": "Point", "coordinates": [-13.2212, 8.4868]}},
    {"type": "Feature", "properties": {"STREET": "Tengbeh Town Road", "POST_CODE": "1103", "ZONE": "Tengbeh Town", "TYPE": "secondary"}, "geometry": {"type": "Point", "coordinates": [-13.2435, 8.4775]}},
    {"type": "Feature", "properties": {"STREET": "New England Ville Road", "POST_CODE": "1103", "ZONE": "New England", "TYPE": "tertiary"}, "geometry": {"type": "Point", "coordinates": [-13.2405, 8.4678]}},
    {"type": "Feature", "properties": {"STREET": "King Harman Road", "POST_CODE": "1103", "ZONE": "Brookfields", "TYPE": "secondary"}, "geometry": {"type": "Point", "coordinates": [-13.2465, 8.4595]}},
    {"type": "Feature", "properties": {"STREET": "Congo Water Road", "POST_CODE": "1102", "ZONE": "Congo Town", "TYPE": "tertiary"}, "geometry": {"type": "Point", "coordinates": [-13.2122, 8.4912]}},
    {"type": "Feature", "properties": {"STREET": "Short Street", "POST_CODE": "1100", "ZONE": "Central Freetown CBD", "TYPE": "tertiary"}, "geometry": {"type": "Point", "coordinates": [-13.227, 8.4762]}},
    {"type": "Feature", "properties": {"STREET": "Jenner Wright Street", "POST_CODE": "1100", "ZONE": "Central Freetown CBD", "TYPE": "tertiary"}, "geometry": {"type": "Point", "coordinates": [-13.2265, 8.4756]}},
    {"type": "Feature", "properties": {"STREET": "Ferry Road", "POST_CODE": "1110", "ZONE": "Kingtom", "TYPE": "secondary"}, "geometry": {"type": "Point", "coordinates": [-13.2558, 8.4802]}},
    {"type": "Feature", "properties": {"STREET": "Aggrey Street", "POST_CODE": "1100", "ZONE": "Central Freetown CBD", "TYPE": "tertiary"}, "geometry": {"type": "Point", "coordinates": [-13.2268, 8.4772]}},
    {"type": "Feature", "properties": {"STREET": "Berry Street", "POST_CODE": "1100", "ZONE": "Central Freetown CBD", "TYPE": "tertiary"}, "geometry": {"type": "Point", "coordinates": [-13.2265, 8.4768]}},
    {"type": "Feature", "properties": {"STREET": "Kissy Dock Yard", "POST_CODE": "1107", "ZONE": "Kissy", "TYPE": "tertiary"}, "geometry": {"type": "Point", "coordinates": [-13.1832, 8.4868]}},
    {"type": "Feature", "properties": {"STREET": "Grassfields Road", "POST_CODE": "1107", "ZONE": "Kissy Mess Mess", "TYPE": "tertiary"}, "geometry": {"type": "Point", "coordinates": [-13.1738, 8.4558]}},
    {"type": "Feature", "properties": {"STREET": "Regent Village Road", "POST_CODE": "1004", "ZONE": "Regent", "TYPE": "secondary"}, "geometry": {"type": "Point", "coordinates": [-13.2116, 8.414]}},
    {"type": "Feature", "properties": {"STREET": "Gloucester Village Road", "POST_CODE": "1006", "ZONE": "Gloucester", "TYPE": "secondary"}, "geometry": {"type": "Point", "coordinates": [-13.2216, 8.434]}},
    {"type": "Feature", "properties": {"STREET": "Leicester Village Road", "POST_CODE": "1005", "ZONE": "Leicester", "TYPE": "secondary"}, "geometry": {"type": "Point", "coordinates": [-13.1964, 8.439]}}
  ]
}
