{
  "type": "FeatureCollection",
  "name": "Sierra_Leone_Postal_Zone_Centroids",
  "crs": {
    "type": "name",
    "properties": {
      "name": "urn:ogc:def:crs:OGC:1.3:CRS84"
    }
  },
  "features": [
    {"type": "Feature", "properties": {"ZONE_CODE": "1000-001", "POST_CODE": "1000", "ZONE_NAME": "Waterloo Town", "DISTRICT": "Western Area Rural", "REGION": "Western Area", "SEG_TYPE": "mixed"}, "geometry": {"type": "Point", "coordinates": [-13.0604, 8.3326]}},
    {"type": "Feature", "properties": {"ZONE_CODE": "1000-002", "POST_CODE": "1000", "ZONE_NAME": "Waterloo Junction", "DISTRICT": "Western Area Rural", "REGION": "Western Area", "SEG_TYPE": "commercial"}, "geometry": {"type": "Point", "coordinates": [-13.0576, 8.329]}},
    {"type": "Feature", "properties": {"ZONE_CODE": "1001-001", "POST_CODE": "1001", "ZONE_NAME": "Newton", "DISTRICT": "Western Area Rural", "REGION": "Western Area", "SEG_TYPE": "residential"}, "geometry": {"type": "Point", "coordinates": [-13.0768, 8.3644]}},
    {"type": "Feature", "properties": {"ZONE_CODE": "1002-001", "POST_CODE": "1002", "ZONE_NAME": "Hastings", "DISTRICT": "Western Area Rural", "REGION": "Western Area", "SEG_TYPE": "residential"}, "geometry": {"type": "Point", "coordinates": [-13.1252, 8.374]}},
    {"type": "Feature", "properties": {"ZONE_CODE": "1003-001", "POST_CODE": "1003", "ZONE_NAME": "Grafton", "DISTRICT": "Western Area Rural", "REGION": "Western Area", "SEG_TYPE": "residential"}, "geometry": {"type": "Point", "coordinates": [-13.1468, 8.389]}},
    {"type": "Feature", "properties": {"ZONE_CODE": "1004-001", "POST_CODE": "1004", "ZONE_NAME": "Regent", "DISTRICT": "Western Area Rural", "REGION": "Western Area", "SEG_TYPE": "residential"}, "geometry": {"type": "Point", "coordinates": [-13.2116, 8.414]}},
    {"type": "Feature", "properties": {"ZONE_CODE": "1005-001", "POST_CODE": "1005", "ZONE_NAME": "Leicester", "DISTRICT": "Western Area Rural", "REGION": "Western Area", "SEG_TYPE": "residential"}, "geometry": {"type": "Point", "coordinates": [-13.1964, 8.439]}},
    {"type": "Feature", "properties": {"ZONE_CODE": "1006-001", "POST_CODE": "1006", "ZONE_NAME": "Gloucester", "DISTRICT": "Western Area Rural", "REGION": "Western Area", "SEG_TYPE": "residential"}, "geometry": {"type": "Point", "coordinates": [-13.2216, 8.434]}},
    {"type": "Feature", "properties": {"ZONE_CODE": "1007-001", "POST_CODE": "1007", "ZONE_NAME": "York", "DISTRICT": "Western Area Rural", "REGION": "Western Area", "SEG_TYPE": "residential"}, "geometry": {"type": "Point", "coordinates": [-13.2942, 8.359]}},
    {"type": "Feature", "properties": {"ZONE_CODE": "1008-001", "POST_CODE": "1008", "ZONE_NAME": "Tombo", "DISTRICT": "Western Area Rural", "REGION": "Western Area", "SEG_TYPE": "residential"}, "geometry": {"type": "Point", "coordinates": [-13.1042, 8.209]}},
    {"type": "Feature", "properties": {"ZONE_CODE": "1100-001", "POST_CODE": "1100", "ZONE_NAME": "Central Freetown CBD", "DISTRICT": "Western Area Urban", "REGION": "Western Area", "SEG_TYPE": "commercial"}, "geometry": {"type": "Point", "coordinates": [-13.2283, 8.4787]}},
    {"type": "Feature", "properties": {"ZONE_CODE": "1100-002", "POST_CODE": "1100", "ZONE_NAME": "Tower Hill", "DISTRICT": "Western Area Urban", "REGION": "Western Area", "SEG_TYPE": "government"}, "geometry": {"type": "Point", "coordinates": [-13.229, 8.4818]}},
    {"type": "Feature", "properties": {"ZONE_CODE": "1100-003", "POST_CODE": "1100", "ZONE_NAME": "Siaka Stevens Street", "DISTRICT": "Western Area Urban", "REGION": "Western Area", "SEG_TYPE": "commercial"}, "geometry": {"type": "Point", "coordinates": [-13.226, 8.477]}},
    {"type": "Feature", "properties": {"ZONE_CODE": "1101-001", "POST_CODE": "1101", "ZONE_NAME": "Cline Town", "DISTRICT": "Western Area Urban", "REGION": "Western Area", "SEG_TYPE": "mixed"}, "geometry": {"type": "Point", "coordinates": [-13.1987, 8.4774]}},
    {"type": "Feature", "properties": {"ZONE_CODE": "1101-002", "POST_CODE": "1101", "ZONE_NAME": "East End", "DISTRICT": "Western Area Urban", "REGION": "Western Area", "SEG_TYPE": "residential"}, "geometry": {"type": "Point", "coordinates": [-13.195, 8.4842]}},
    {"type": "Feature", "properties": {"ZONE_CODE": "1101-003", "POST_CODE": "1101", "ZONE_NAME": "Fourah Bay", "DISTRICT": "Western Area Urban", "REGION": "Western Area", "SEG_TYPE": "mixed"}, "geometry": {"type": "Point", "coordinates": [-13.205, 8.4886]}},
    {"type": "Feature", "properties": {"ZONE_CODE": "1102-001", "POST_CODE": "1102", "ZONE_NAME": "Congo Town", "DISTRICT": "Western Area Urban", "REGION": "Western Area", "SEG_TYPE": "residential"}, "geometry": {"type": "Point", "coordinates": [-13.212, 8.4912]}},
    {"type": "Feature", "properties": {"ZONE_CODE": "1102-002", "POST_CODE": "1102", "ZONE_NAME": "Foulah Town", "DISTRICT": "Western Area Urban", "REGION": "Western Area", "SEG_TYPE": "residential"}, "geometry": {"type": "Point", "coordinates": [-13.221, 8.4868]}},
    {"type": "Feature", "properties": {"ZONE_CODE": "1102-003", "POST_CODE": "1102", "ZONE_NAME": "Murray Town", "DISTRICT": "Western Area Urban", "REGION": "Western Area", "SEG_TYPE": "residential"}, "geometry": {"type": "Point", "coordinates": [-13.266, 8.4676]}},
    {"type": "Feature", "properties": {"ZONE_CODE": "1103-001", "POST_CODE": "1103", "ZONE_NAME": "Brookfields", "DISTRICT": "Western Area Urban", "REGION": "Western Area", "SEG_TYPE": "residential"}, "geometry": {"type": "Point", "coordinates": [-13.246, 8.46]}},
    {"type": "Feature", "properties": {"ZONE_CODE": "1103-002", "POST_CODE": "1103", "ZONE_NAME": "New England", "DISTRICT": "Western Area Urban", "REGION": "Western Area", "SEG_TYPE": "residential"}, "geometry": {"type": "Point", "coordinates": [-13.2402, 8.4676]}},
    {"type": "Feature", "properties": {"ZONE_CODE": "1103-003", "POST_CODE": "1103", "ZONE_NAME": "Tengbeh Town", "DISTRICT": "Western Area Urban", "REGION": "Western Area", "SEG_TYPE": "residential"}, "geometry": {"type": "Point", "coordinates": [-13.2434, 8.4776]}},
    {"type": "Feature", "properties": {"ZONE_CODE": "1104-001", "POST_CODE": "1104", "ZONE_NAME": "Hill Station", "DISTRICT": "Western Area Urban", "REGION": "Western Area", "SEG_TYPE": "residential"}, "geometry": {"type": "Point", "coordinates": [-13.2644, 8.4536]}},
    {"type": "Feature", "properties": {"ZONE_CODE": "1104-002", "POST_CODE": "1104", "ZONE_NAME": "Wilberforce", "DISTRICT": "Western Area Urban", "REGION": "Western Area", "SEG_TYPE": "residential"}, "geometry": {"type": "Point", "coordinates": [-13.2706, 8.4416]}},
    {"type": "Feature", "properties": {"ZONE_CODE": "1104-003", "POST_CODE": "1104", "ZONE_NAME": "Signal Hill", "DISTRICT": "Western Area Urban", "REGION": "Western Area", "SEG_TYPE": "residential"}, "geometry": {"type": "Point", "coordinates": [-13.278, 8.437]}},
    {"type": "Feature", "properties": {"ZONE_CODE": "1105-001", "POST_CODE": "1105", "ZONE_NAME": "Lumley", "DISTRICT": "Western Area Urban", "REGION": "Western Area", "SEG_TYPE": "mixed"}, "geometry": {"type": "Point", "coordinates": [-13.286, 8.4316]}},
    {"type": "Feature", "properties": {"ZONE_CODE": "1105-002", "POST_CODE": "1105", "ZONE_NAME": "Aberdeen", "DISTRICT": "Western Area Urban", "REGION": "Western Area", "SEG_TYPE": "mixed"}, "geometry": {"type": "Point", "coordinates": [-13.2934, 8.4184]}},
    {"type": "Feature", "properties": {"ZONE_CODE": "1105-003", "POST_CODE": "1105", "ZONE_NAME": "Cockle Bay", "DISTRICT": "Western Area Urban", "REGION": "Western Area", "SEG_TYPE": "residential"}, "geometry": {"type": "Point", "coordinates": [-13.308, 8.4112]}},
    {"type": "Feature", "properties": {"ZONE_CODE": "1106-001", "POST_CODE": "1106", "ZONE_NAME": "Goderich", "DISTRICT": "Western Area Urban", "REGION": "Western Area", "SEG_TYPE": "residential"}, "geometry": {"type": "Point", "coordinates": [-13.318, 8.4058]}},
    {"type": "Feature", "properties": {"ZONE_CODE": "1106-002", "POST_CODE": "1106", "ZONE_NAME": "Juba", "DISTRICT": "Western Area Urban", "REGION": "Western Area", "SEG_TYPE": "residential"}, "geometry": {"type": "Point", "coordinates": [-13.302, 8.4446]}},
    {"type": "Feature", "properties": {"ZONE_CODE": "1106-003", "POST_CODE": "1106", "ZONE_NAME": "Lakka", "DISTRICT": "Western Area Urban", "REGION": "Western Area", "SEG_TYPE": "residential"}, "geometry": {"type": "Point", "coordinates": [-13.328, 8.3884]}},
    {"type": "Feature", "properties": {"ZONE_CODE": "1107-001", "POST_CODE": "1107", "ZONE_NAME": "Kissy", "DISTRICT": "Western Area Urban", "REGION": "Western Area", "SEG_TYPE": "residential"}, "geometry": {"type": "Point", "coordinates": [-13.183, 8.487]}},
    {"type": "Feature", "properties": {"ZONE_CODE": "1107-002", "POST_CODE": "1107", "ZONE_NAME": "Kissy Brook", "DISTRICT": "Western Area Urban", "REGION": "Western Area", "SEG_TYPE": "residential"}, "geometry": {"type": "Point", "coordinates": [-13.179, 8.472]}},
    {"type": "Feature", "properties": {"ZONE_CODE": "1107-003", "POST_CODE": "1107", "ZONE_NAME": "Kissy Mess Mess", "DISTRICT": "Western Area Urban", "REGION": "Western Area", "SEG_TYPE": "residential"}, "geometry": {"type": "Point", "coordinates": [-13.1734, 8.4554]}},
    {"type": "Feature", "properties": {"ZONE_CODE": "1108-001", "POST_CODE": "1108", "ZONE_NAME": "Wellington", "DISTRICT": "Western Area Urban", "REGION": "Western Area", "SEG_TYPE": "residential"}, "geometry": {"type": "Point", "coordinates": [-13.1626, 8.487]}},
    {"type": "Feature", "properties": {"ZONE_CODE": "1108-002", "POST_CODE": "1108", "ZONE_NAME": "Portee", "DISTRICT": "Western Area Urban", "REGION": "Western Area", "SEG_TYPE": "residential"}, "geometry": {"type": "Point", "coordinates": [-13.1556, 8.4916]}},
    {"type": "Feature", "properties": {"ZONE_CODE": "1109-001", "POST_CODE": "1109", "ZONE_NAME": "Calaba Town", "DISTRICT": "Western Area Urban", "REGION": "Western Area", "SEG_TYPE": "residential"}, "geometry": {"type": "Point", "coordinates": [-13.1452, 8.4994]}},
    {"type": "Feature", "properties": {"ZONE_CODE": "1109-002", "POST_CODE": "1109", "ZONE_NAME": "Allen Town", "DISTRICT": "Western Area Urban", "REGION": "Western Area", "SEG_TYPE": "residential"}, "geometry": {"type": "Point", "coordinates": [-13.1348, 8.5042]}},
    {"type": "Feature", "properties": {"ZONE_CODE": "1110-001", "POST_CODE": "1110", "ZONE_NAME": "Kingtom", "DISTRICT": "Western Area Urban", "REGION": "Western Area", "SEG_TYPE": "mixed"}, "geometry": {"type": "Point", "coordinates": [-13.256, 8.48]}},
    {"type": "Feature", "properties": {"ZONE_CODE": "1110-002", "POST_CODE": "1110", "ZONE_NAME": "Kroo Town", "DISTRICT": "Western Area Urban", "REGION": "Western Area", "SEG_TYPE": "residential"}, "geometry": {"type": "Point", "coordinates": [-13.207, 8.4976]}},
    {"type": "Feature", "properties": {"ZONE_CODE": "2100-001", "POST_CODE": "2100", "ZONE_NAME": "Makeni City Center", "DISTRICT": "Bombali", "REGION": "Northern Province", "SEG_TYPE": "commercial"}, "geometry": {"type": "Point", "coordinates": [-12.0504, 8.889]}},
    {"type": "Feature", "properties": {"ZONE_CODE": "2100-002", "POST_CODE": "2100", "ZONE_NAME": "Makeni Teko", "DISTRICT": "Bombali", "REGION": "Northern Province", "SEG_TYPE": "residential"}, "geometry": {"type": "Point", "coordinates": [-12.0446, 8.875]}},
    {"type": "Feature", "properties": {"ZONE_CODE": "2101-001", "POST_CODE": "2101", "ZONE_NAME": "Kamabai", "DISTRICT": "Bombali", "REGION": "Northern Province", "SEG_TYPE": "residential"}, "geometry": {"type": "Point", "coordinates": [-12.1676, 9.1126]}},
    {"type": "Feature", "properties": {"ZONE_CODE": "2102-001", "POST_CODE": "2102", "ZONE_NAME": "Binkolo", "DISTRICT": "Bombali", "REGION": "Northern Province", "SEG_TYPE": "residential"}, "geometry": {"type": "Point", "coordinates": [-12.0334, 9.0074]}},
    {"type": "Feature", "properties": {"ZONE_CODE": "2200-001", "POST_CODE": "2200", "ZONE_NAME": "Falaba Town", "DISTRICT": "Falaba", "REGION": "Northern Province", "SEG_TYPE": "mixed"}, "geometry": {"type": "Point", "coordinates": [-11.3176, 9.8558]}},
    {"type": "Feature", "properties": {"ZONE_CODE": "2201-001", "POST_CODE": "2201", "ZONE_NAME": "Mongo", "DISTRICT": "Falaba", "REGION": "Northern Province", "SEG_TYPE": "residential"}, "geometry": {"type": "Point", "coordinates": [-11.3034, 9.769]}},
    {"type": "Feature", "properties": {"ZONE_CODE": "2300-001", "POST_CODE": "2300", "ZONE_NAME": "Kabala Town", "DISTRICT": "Koinadugu", "REGION": "Northern Province", "SEG_TYPE": "mixed"}, "geometry": {"type": "Point", "coordinates": [-11.5504, 9.589]}},
    {"type": "Feature", "properties": {"ZONE_CODE": "2301-001", "POST_CODE": "2301", "ZONE_NAME": "Yogomaia", "DISTRICT": "Koinadugu", "REGION": "Northern Province", "SEG_TYPE": "residential"}, "geometry": {"type": "Point", "coordinates": [-11.4656, 9.5126]}},
    {"type": "Feature", "properties": {"ZONE_CODE": "2400-001", "POST_CODE": "2400", "ZONE_NAME": "Magburaka Town", "DISTRICT": "Tonkolili", "REGION": "Northern Province", "SEG_TYPE": "mixed"}, "geometry": {"type": "Point", "coordinates": [-11.9504, 8.719]}},
    {"type": "Feature", "properties": {"ZONE_CODE": "2401-001", "POST_CODE": "2401", "ZONE_NAME": "Yele", "DISTRICT": "Tonkolili", "REGION": "Northern Province", "SEG_TYPE": "residential"}, "geometry": {"type": "Point", "coordinates": [-11.8304, 8.539]}},
    {"type": "Feature", "properties": {"ZONE_CODE": "2402-001", "POST_CODE": "2402", "ZONE_NAME": "Mile 91", "DISTRICT": "Tonkolili", "REGION": "Northern Province", "SEG_TYPE": "commercial"}, "geometry": {"type": "Point", "coordinates": [-12.0834, 8.4626]}},
    {"type": "Feature", "properties": {"ZONE_CODE": "2500-001", "POST_CODE": "2500", "ZONE_NAME": "Kamakwie", "DISTRICT": "Karene", "REGION": "Northern Province", "SEG_TYPE": "mixed"}, "geometry": {"type": "Point", "coordinates": [-12.2334, 9.4926]}},
    {"type": "Feature", "properties": {"ZONE_CODE": "3100-001", "POST_CODE": "3100", "ZONE_NAME": "Kambia Town", "DISTRICT": "Kambia", "REGION": "North West Province", "SEG_TYPE": "mixed"}, "geometry": {"type": "Point", "coordinates": [-12.9176, 9.1258]}},
    {"type": "Feature", "properties": {"ZONE_CODE": "3101-001", "POST_CODE": "3101", "ZONE_NAME": "Rokupr", "DISTRICT": "Kambia", "REGION": "North West Province", "SEG_TYPE": "residential"}, "geometry": {"type": "Point", "coordinates": [-12.9504, 9.0358]}},
    {"type": "Feature", "properties": {"ZONE_CODE": "3200-001", "POST_CODE": "3200", "ZONE_NAME": "Port Loko Town", "DISTRICT": "Port Loko", "REGION": "North West Province", "SEG_TYPE": "mixed"}, "geometry": {"type": "Point", "coordinates": [-12.7834, 8.769]}},
    {"type": "Feature", "properties": {"ZONE_CODE": "3201-001", "POST_CODE": "3201", "ZONE_NAME": "Lunsar", "DISTRICT": "Port Loko", "REGION": "North West Province", "SEG_TYPE": "commercial"}, "geometry": {"type": "Point", "coordinates": [-12.5334, 8.6826]}},
    {"type": "Feature", "properties": {"ZONE_CODE": "3202-001", "POST_CODE": "3202", "ZONE_NAME": "Lungi", "DISTRICT": "Port Loko", "REGION": "North West Province", "SEG_TYPE": "mixed"}, "geometry": {"type": "Point", "coordinates": [-13.1904, 8.6126]}},
    {"type": "Feature", "properties": {"ZONE_CODE": "4100-001", "POST_CODE": "4100", "ZONE_NAME": "Bo City Center", "DISTRICT": "Bo", "REGION": "Southern Province", "SEG_TYPE": "commercial"}, "geometry": {"type": "Point", "coordinates": [-11.7376, 7.9658]}},
    {"type": "Feature", "properties": {"ZONE_CODE": "4100-002", "POST_CODE": "4100", "ZONE_NAME": "Bo New London", "DISTRICT": "Bo", "REGION": "Southern Province", "SEG_TYPE": "residential"}, "geometry": {"type": "Point", "coordinates": [-11.7304, 7.9526]}},
    {"type": "Feature", "properties": {"ZONE_CODE": "4101-001", "POST_CODE": "4101", "ZONE_NAME": "Koribondo", "DISTRICT": "Bo", "REGION": "Southern Province", "SEG_TYPE": "residential"}, "geometry": {"type": "Point", "coordinates": [-11.5334, 7.7058]}},
    {"type": "Feature", "properties": {"ZONE_CODE": "4200-001", "POST_CODE": "4200", "ZONE_NAME": "Bonthe Town", "DISTRICT": "Bonthe", "REGION": "Southern Province", "SEG_TYPE": "mixed"}, "geometry": {"type": "Point", "coordinates": [-12.5004, 7.5358]}},
    {"type": "Feature", "properties": {"ZONE_CODE": "4201-001", "POST_CODE": "4201", "ZONE_NAME": "Mattru Jong", "DISTRICT": "Bonthe", "REGION": "Southern Province", "SEG_TYPE": "mixed"}, "geometry": {"type": "Point", "coordinates": [-11.8334, 7.6226]}},
    {"type": "Feature", "properties": {"ZONE_CODE": "4300-001", "POST_CODE": "4300", "ZONE_NAME": "Moyamba Town", "DISTRICT": "Moyamba", "REGION": "Southern Province", "SEG_TYPE": "mixed"}, "geometry": {"type": "Point", "coordinates": [-12.4304, 8.1626]}},
    {"type": "Feature", "properties": {"ZONE_CODE": "4301-001", "POST_CODE": "4301", "ZONE_NAME": "Shenge", "DISTRICT": "Moyamba", "REGION": "Southern Province", "SEG_TYPE": "residential"}, "geometry": {"type": "Point", "coordinates": [-12.7876, 7.8858]}},
    {"type": "Feature", "properties": {"ZONE_CODE": "4400-001", "POST_CODE": "4400", "ZONE_NAME": "Pujehun Town", "DISTRICT": "Pujehun", "REGION": "Southern Province", "SEG_TYPE": "mixed"}, "geometry": {"type": "Point", "coordinates": [-11.7176, 7.3526]}},
    {"type": "Feature", "properties": {"ZONE_CODE": "4401-001", "POST_CODE": "4401", "ZONE_NAME": "Zimmi", "DISTRICT": "Pujehun", "REGION": "Southern Province", "SEG_TYPE": "residential"}, "geometry": {"type": "Point", "coordinates": [-11.3576, 7.2926]}},
    {"type": "Feature", "properties": {"ZONE_CODE": "5100-001", "POST_CODE": "5100", "ZONE_NAME": "Kailahun Town", "DISTRICT": "Kailahun", "REGION": "Eastern Province", "SEG_TYPE": "mixed"}, "geometry": {"type": "Point", "coordinates": [-10.5734, 8.279]}},
    {"type": "Feature", "properties": {"ZONE_CODE": "5101-001", "POST_CODE": "5101", "ZONE_NAME": "Pendembu", "DISTRICT": "Kailahun", "REGION": "Eastern Province", "SEG_TYPE": "residential"}, "geometry": {"type": "Point", "coordinates": [-10.7034, 8.0926]}},
    {"type": "Feature", "properties": {"ZONE_CODE": "5102-001", "POST_CODE": "5102", "ZONE_NAME": "Segbwema", "DISTRICT": "Kailahun", "REGION": "Eastern Province", "SEG_TYPE": "residential"}, "geometry": {"type": "Point", "coordinates": [-10.9434, 7.9926]}},
    {"type": "Feature", "properties": {"ZONE_CODE": "5200-001", "POST_CODE": "5200", "ZONE_NAME": "Kenema City Center", "DISTRICT": "Kenema", "REGION": "Eastern Province", "SEG_TYPE": "commercial"}, "geometry": {"type": "Point", "coordinates": [-11.1904, 7.879]}},
    {"type": "Feature", "properties": {"ZONE_CODE": "5200-002", "POST_CODE": "5200", "ZONE_NAME": "Kenema Nyandehun", "DISTRICT": "Kenema", "REGION": "Eastern Province", "SEG_TYPE": "residential"}, "geometry": {"type": "Point", "coordinates": [-11.1834, 7.8646]}},
    {"type": "Feature", "properties": {"ZONE_CODE": "5201-001", "POST_CODE": "5201", "ZONE_NAME": "Blama", "DISTRICT": "Kenema", "REGION": "Eastern Province", "SEG_TYPE": "residential"}, "geometry": {"type": "Point", "coordinates": [-11.1304, 7.8826]}},
    {"type": "Feature", "properties": {"ZONE_CODE": "5202-001", "POST_CODE": "5202", "ZONE_NAME": "Panguma", "DISTRICT": "Kenema", "REGION": "Eastern Province", "SEG_TYPE": "residential"}, "geometry": {"type": "Point", "coordinates": [-11.1634, 8.0026]}},
    {"type": "Feature", "properties": {"ZONE_CODE": "5300-001", "POST_CODE": "5300", "ZONE_NAME": "Koidu City Center", "DISTRICT": "Kono", "REGION": "Eastern Province", "SEG_TYPE": "commercial"}, "geometry": {"type": "Point", "coordinates": [-10.9676, 8.6458]}},
    {"type": "Feature", "properties": {"ZONE_CODE": "5300-002", "POST_CODE": "5300", "ZONE_NAME": "Koidu New Sembehun", "DISTRICT": "Kono", "REGION": "Eastern Province", "SEG_TYPE": "residential"}, "geometry": {"type": "Point", "coordinates": [-10.9604, 8.6326]}},
    {"type": "Feature", "properties": {"ZONE_CODE": "5301-001", "POST_CODE": "5301", "ZONE_NAME": "Yengema", "DISTRICT": "Kono", "REGION": "Eastern Province", "SEG_TYPE": "residential"}, "geometry": {"type": "Point", "coordinates": [-10.9834, 8.5926]}},
    {"type": "Feature", "properties": {"ZONE_CODE": "5302-001", "POST_CODE": "5302", "ZONE_NAME": "Tombodu", "DISTRICT": "Kono", "REGION": "Eastern Province", "SEG_TYPE": "residential"}, "geometry": {"type": "Point", "coordinates": [-10.8434, 8.7058]}}
  ]
}
